{"features":[{"geometry":{"coordinates":[[[118.919591,32.119839996],[118.919537897,32.119800701],[118.919507801,32.119737102],[118.919516897,32.119670896],[118.919561899,32.119597102],[118.920271095,32.118472203],[118.921659398,32.116112397],[118.921978295,32.115577998],[118.922307396,32.115019397],[118.922549103,32.114635098],[118.9227938,32.114233201],[118.922845998,32.114199099],[118.922899201,32.114186097],[118.922978795,32.114185898],[118.922979501,32.1141074],[118.922987199,32.113859998],[118.922987199,32.113766998],[118.923029595,32.113766796],[118.923035202,32.113594999],[118.923065897,32.113355699],[118.923132796,32.112906399],[118.923240901,32.112906398],[118.923243197,32.112549004],[118.923218402,32.111885704],[118.923195905,32.111298097],[118.923187502,32.111104604],[118.923173297,32.110775404],[118.923159804,32.1103614],[118.923107797,32.108947601],[118.923106702,32.108757903],[118.923105599,32.108725504],[118.923105603,32.108695902],[118.923096996,32.108433504],[118.923087598,32.108258201],[118.9230926,32.1079297],[118.923078702,32.107561503],[118.923071402,32.107301304],[118.923068199,32.107183397],[118.923066605,32.107054804],[118.923068199,32.106976202],[118.923072905,32.106944897],[118.923126,32.106938101],[118.924354502,32.107321602],[118.925379505,32.107647204],[118.925824605,32.107817396],[118.925825898,32.107640298],[118.925998702,32.107699398],[118.926070005,32.107725001],[118.926529402,32.107870503],[118.926594505,32.1078905],[118.926762003,32.107944702],[118.926760297,32.108101097],[118.926859596,32.108133697],[118.927113703,32.108224696],[118.927411798,32.108320797],[118.927804595,32.108416203],[118.928198199,32.108511696],[118.929342503,32.108852198],[118.929807505,32.109045504],[118.930287999,32.109245201],[118.930397896,32.109285303],[118.930443603,32.1093554],[118.930435001,32.109428002],[118.930352203,32.109553696],[118.9299354,32.110216303],[118.929912497,32.110250403],[118.929889,32.110288003],[118.9296606,32.110680798],[118.929499998,32.111037799],[118.929422501,32.111233196],[118.929346896,32.111462196],[118.929235597,32.111940397],[118.929177897,32.1123581],[118.929171898,32.112824504],[118.929193798,32.113125996],[118.9292276,32.113398796],[118.929309105,32.113757401],[118.929386698,32.114045399],[118.929502,32.114452897],[118.929625203,32.114862097],[118.929834001,32.115523897],[118.930004997,32.116091397],[118.930167998,32.116631898],[118.9303549,32.117236397],[118.9304968,32.117908],[118.930507098,32.118048302],[118.930502696,32.118066201],[118.930492104,32.118080604],[118.930410099,32.118199504],[118.930316499,32.118344502],[118.930270303,32.118411003],[118.930215101,32.118493696],[118.930142597,32.118601799],[118.930085101,32.118688802],[118.930055102,32.118733797],[118.930255903,32.118829398],[118.930341196,32.118905899],[118.930366298,32.118956999],[118.930384201,32.119204796],[118.930362804,32.119382001],[118.930349298,32.119442204],[118.9302501,32.119752298],[118.930074398,32.120206597],[118.929916201,32.120496196],[118.929657299,32.120914197],[118.929350198,32.121450301],[118.928886195,32.122173802],[118.928824496,32.122278303],[118.928624704,32.122630399],[118.928526798,32.122761003],[118.9282438,32.1231915],[118.928003799,32.123599297],[118.927927304,32.123691297],[118.927857601,32.123742398],[118.9277905,32.123746902],[118.927643001,32.1237208],[118.927475397,32.123663996],[118.926922802,32.123451597],[118.9264333,32.123242601],[118.926115505,32.123122203],[118.925851303,32.1229996],[118.925235701,32.122698598],[118.923101999,32.121644602],[118.923055098,32.121629801],[118.923022896,32.121646796],[118.922953201,32.1217706],[118.922577605,32.1215832],[118.922537399,32.121534403],[118.922540099,32.121460502],[118.922613004,32.121352298],[118.922612995,32.121334196],[118.922497304,32.1212761],[118.922398697,32.121227098],[118.922378599,32.1212416],[118.922290004,32.121201501],[118.921759695,32.1209549],[118.921295603,32.120730299],[118.920909705,32.120513701],[118.920348604,32.120222996],[118.919591,32.119839996]]],"type":"Polygon"},"id":"osm_way_89910254","properties":{"area_m2":1183170.024433,"asset_id":"osm_way_89910254","center":[77.911342,88.129861],"geometry_role":"campus_boundary","id":"osm_way_89910254","map_feature_id":null,"name":"南京邮电大学（仙林校区）","source_url":"","space_id":null},"type":"Feature"}],"name":"boundary","type":"FeatureCollection"}
