{"features":[{"geometry":{"coordinates":[[[118.92224299547796,32.10954290295733],[118.92231300250315,32.11000210160437],[118.92089930189688,32.10985650206687],[118.92089930413383,32.10978729590259],[118.92077980456757,32.10978239858552],[118.92077979988723,32.10970830398898],[118.9208876035482,32.109708300830384],[118.92087889767771,32.109594697837835],[118.92224299547796,32.10954290295733]]],"type":"Polygon"},"id":"osm_way_278003316","properties":{"area_m2":5304.919942,"asset_id":"osm_way_278003316","center":[-307.293695,-587.568256],"confidence":{"appearance":"requires_photo_evidence","footprint":"mapped_unverified","height":"inferred","levels":"inferred"},"geometry_role":"mapped_context_building_outline","height":18.1,"height_source":"inferred building typology","id":"osm_way_278003316","is_part":false,"levels":5.0,"levels_source":"inferred building typology","map_feature_id":null,"min_height":0.0,"name":"管理科学楼（专二）","osm_id":278003316,"osm_type":"way","osm_version":3,"parent_id":null,"source_timestamp":"2018-11-11T07:47:18Z","source_url":"https://www.openstreetmap.org/way/278003316","space_id":null,"storey_height_assumption_m":3.5,"style_hint":"academic","tags":{"building":"yes","name":"管理科学楼（专二）","name:zh":"管理科学楼（专二）"},"underground":false},"type":"Feature"},{"geometry":{"coordinates":[[[118.92987400251933,32.121944696334126],[118.93007769768839,32.121602596239555],[118.93017290519863,32.12169380068774],[118.92997130299197,32.121986298395534],[118.92987400251933,32.121944696334126]]],"type":"Polygon"},"id":"osm_way_1051736239","properties":{"area_m2":460.417425,"asset_id":"osm_way_1051736239","center":[460.812401,762.481537],"confidence":{"appearance":"requires_photo_evidence","footprint":"mapped_unverified","height":"inferred","levels":"inferred"},"geometry_role":"mapped_context_building_outline","height":4.0,"height_source":"inferred building typology","id":"osm_way_1051736239","is_part":false,"levels":1.0,"levels_source":"inferred building typology","map_feature_id":null,"min_height":0.0,"name":"南京工业职业技术大学（西门）","osm_id":1051736239,"osm_type":"way","osm_version":1,"parent_id":null,"source_timestamp":"2022-04-14T05:26:38Z","source_url":"https://www.openstreetmap.org/way/1051736239","space_id":null,"storey_height_assumption_m":3.4,"style_hint":"service","tags":{"amenity":"shelter","building":"yes","layer":"-1","name":"南京工业职业技术大学（西门）"},"underground":true},"type":"Feature"},{"geometry":{"coordinates":[[[118.93071139843892,32.1110436011248],[118.93061170067251,32.11123540411765],[118.93034670441297,32.111136596788825],[118.93044660203209,32.11094470075003],[118.93071139843892,32.1110436011248]]],"type":"Polygon"},"id":"osm_way_1091379226","properties":{"area_m2":635.121439,"asset_id":"osm_way_1091379226","center":[529.495348,-424.165357],"confidence":{"appearance":"requires_photo_evidence","footprint":"mapped_unverified","height":"inferred","levels":"inferred"},"geometry_role":"mapped_context_building_outline","height":7.6,"height_source":"inferred building typology","id":"osm_way_1091379226","is_part":false,"levels":2.0,"levels_source":"inferred building typology","map_feature_id":null,"min_height":0.0,"name":"","osm_id":1091379226,"osm_type":"way","osm_version":1,"parent_id":null,"source_timestamp":"2022-09-02T22:06:14Z","source_url":"https://www.openstreetmap.org/way/1091379226","space_id":null,"storey_height_assumption_m":3.5,"style_hint":"service","tags":{"amenity":"fuel","building":"roof","layer":"1"},"underground":false},"type":"Feature"}],"name":"context_buildings","type":"FeatureCollection"}
