{"features":[{"geometry":{"coordinates":[118.923600399,32.111366704],"type":"Point"},"id":"osm_node_2327160732","properties":{"asset_id":"osm_node_2327160732","geometry_role":"mapped_point_of_interest","id":"osm_node_2327160732","map_feature_id":null,"name":"","osm_id":2327160732,"osm_type":"node","osm_version":6,"source_timestamp":"2025-10-20T03:47:29Z","source_url":"https://www.openstreetmap.org/node/2327160732","space_id":null,"tags":{"building":"residential","landuse":"residential"}},"type":"Feature"},{"geometry":{"coordinates":[118.928895802,32.115125098],"type":"Point"},"id":"osm_node_2327160857","properties":{"asset_id":"osm_node_2327160857","geometry_role":"mapped_point_of_interest","id":"osm_node_2327160857","map_feature_id":null,"name":"菊苑","osm_id":2327160857,"osm_type":"node","osm_version":4,"source_timestamp":"2013-06-11T15:07:19Z","source_url":"https://www.openstreetmap.org/node/2327160857","space_id":null,"tags":{"building":"residential","landuse":"residential","name":"菊苑"}},"type":"Feature"},{"geometry":{"coordinates":[118.9285151,32.112774397],"type":"Point"},"id":"osm_node_2327160907","properties":{"asset_id":"osm_node_2327160907","geometry_role":"mapped_point_of_interest","id":"osm_node_2327160907","map_feature_id":null,"name":"兰苑","osm_id":2327160907,"osm_type":"node","osm_version":3,"source_timestamp":"2013-06-11T15:07:19Z","source_url":"https://www.openstreetmap.org/node/2327160907","space_id":null,"tags":{"building":"residential","landuse":"residential","name":"兰苑"}},"type":"Feature"},{"geometry":{"coordinates":[118.928896604,32.113995504],"type":"Point"},"id":"osm_node_2327161478","properties":{"asset_id":"osm_node_2327161478","geometry_role":"mapped_point_of_interest","id":"osm_node_2327161478","map_feature_id":null,"name":"竹苑","osm_id":2327161478,"osm_type":"node","osm_version":3,"source_timestamp":"2013-06-11T15:07:19Z","source_url":"https://www.openstreetmap.org/node/2327161478","space_id":null,"tags":{"building":"residential","landuse":"residential","name":"竹苑"}},"type":"Feature"},{"geometry":{"coordinates":[118.928243804,32.119314599],"type":"Point"},"id":"osm_node_2340193687","properties":{"asset_id":"osm_node_2340193687","geometry_role":"mapped_point_of_interest","id":"osm_node_2340193687","map_feature_id":null,"name":"中超华城超市","osm_id":2340193687,"osm_type":"node","osm_version":7,"source_timestamp":"2023-12-20T10:08:34Z","source_url":"https://www.openstreetmap.org/node/2340193687","space_id":null,"tags":{"name":"中超华城超市","name:en":"Zhong Chao Hua Cheng Supermarket","name:zh":"中超华诚超市","shop":"supermarket","toilets:wheelchair":"no","wheelchair":"limited"}},"type":"Feature"},{"geometry":{"coordinates":[118.929318595,32.113954601],"type":"Point"},"id":"osm_node_2340727810","properties":{"asset_id":"osm_node_2340727810","geometry_role":"mapped_point_of_interest","id":"osm_node_2340727810","map_feature_id":null,"name":"南邮仙林四食堂","osm_id":2340727810,"osm_type":"node","osm_version":2,"source_timestamp":"2013-06-23T10:37:01Z","source_url":"https://www.openstreetmap.org/node/2340727810","space_id":null,"tags":{"amenity":"restaurant","name":"南邮仙林四食堂"}},"type":"Feature"},{"geometry":{"coordinates":[118.927946998,32.1132619],"type":"Point"},"id":"osm_node_2342909622","properties":{"asset_id":"osm_node_2342909622","geometry_role":"mapped_point_of_interest","id":"osm_node_2342909622","map_feature_id":null,"name":"恋之味","osm_id":2342909622,"osm_type":"node","osm_version":2,"source_timestamp":"2021-02-05T06:27:46Z","source_url":"https://www.openstreetmap.org/node/2342909622","space_id":null,"tags":{"amenity":"fast_food","cuisine":"chicken;burger","name":"恋之味"}},"type":"Feature"},{"geometry":{"coordinates":[118.927928496,32.113092599],"type":"Point"},"id":"osm_node_2342909624","properties":{"asset_id":"osm_node_2342909624","geometry_role":"mapped_point_of_interest","id":"osm_node_2342909624","map_feature_id":null,"name":"卧具洗衣房","osm_id":2342909624,"osm_type":"node","osm_version":1,"source_timestamp":"2013-06-13T03:35:11Z","source_url":"https://www.openstreetmap.org/node/2342909624","space_id":null,"tags":{"name":"卧具洗衣房","shop":"laundry"}},"type":"Feature"},{"geometry":{"coordinates":[118.927926897,32.112770603],"type":"Point"},"id":"osm_node_2342909628","properties":{"asset_id":"osm_node_2342909628","geometry_role":"mapped_point_of_interest","id":"osm_node_2342909628","map_feature_id":null,"name":"中信银行ATM","osm_id":2342909628,"osm_type":"node","osm_version":2,"source_timestamp":"2026-04-25T08:16:15Z","source_url":"https://www.openstreetmap.org/node/2342909628","space_id":null,"tags":{"amenity":"atm","brand":"中信银行","brand:en":"China CITIC Bank","brand:wikidata":"Q38960","brand:zh":"中信银行","name":"中信银行ATM","operator":"中信银行","operator:wikidata":"Q38960"}},"type":"Feature"},{"geometry":{"coordinates":[118.927928398,32.112410498],"type":"Point"},"id":"osm_node_2342909630","properties":{"asset_id":"osm_node_2342909630","geometry_role":"mapped_point_of_interest","id":"osm_node_2342909630","map_feature_id":null,"name":"苏果好的便利店","osm_id":2342909630,"osm_type":"node","osm_version":1,"source_timestamp":"2013-06-13T03:35:11Z","source_url":"https://www.openstreetmap.org/node/2342909630","space_id":null,"tags":{"name":"苏果好的便利店","shop":"convenience"}},"type":"Feature"},{"geometry":{"coordinates":[118.927970901,32.111999602],"type":"Point"},"id":"osm_node_2342909633","properties":{"asset_id":"osm_node_2342909633","geometry_role":"mapped_point_of_interest","id":"osm_node_2342909633","map_feature_id":null,"name":"一鸣真鲜奶吧","osm_id":2342909633,"osm_type":"node","osm_version":1,"source_timestamp":"2013-06-13T03:35:11Z","source_url":"https://www.openstreetmap.org/node/2342909633","space_id":null,"tags":{"name":"一鸣真鲜奶吧","shop":"beverages"}},"type":"Feature"},{"geometry":{"coordinates":[118.927976702,32.111948897],"type":"Point"},"id":"osm_node_2342909634","properties":{"asset_id":"osm_node_2342909634","geometry_role":"mapped_point_of_interest","id":"osm_node_2342909634","map_feature_id":null,"name":"图文中心","osm_id":2342909634,"osm_type":"node","osm_version":1,"source_timestamp":"2013-06-13T03:35:11Z","source_url":"https://www.openstreetmap.org/node/2342909634","space_id":null,"tags":{"name":"图文中心","shop":"stationery"}},"type":"Feature"},{"geometry":{"coordinates":[118.927981599,32.1119081],"type":"Point"},"id":"osm_node_2342909635","properties":{"asset_id":"osm_node_2342909635","geometry_role":"mapped_point_of_interest","id":"osm_node_2342909635","map_feature_id":null,"name":"茶心语","osm_id":2342909635,"osm_type":"node","osm_version":1,"source_timestamp":"2013-06-13T03:35:11Z","source_url":"https://www.openstreetmap.org/node/2342909635","space_id":null,"tags":{"name":"茶心语","shop":"beverages"}},"type":"Feature"},{"geometry":{"coordinates":[118.9279893,32.1118656],"type":"Point"},"id":"osm_node_2342909636","properties":{"asset_id":"osm_node_2342909636","geometry_role":"mapped_point_of_interest","id":"osm_node_2342909636","map_feature_id":null,"name":"美家乐汉堡店","osm_id":2342909636,"osm_type":"node","osm_version":1,"source_timestamp":"2013-06-13T03:35:12Z","source_url":"https://www.openstreetmap.org/node/2342909636","space_id":null,"tags":{"amenity":"fast_food","name":"美家乐汉堡店"}},"type":"Feature"},{"geometry":{"coordinates":[118.928038697,32.111609202],"type":"Point"},"id":"osm_node_2342909638","properties":{"asset_id":"osm_node_2342909638","geometry_role":"mapped_point_of_interest","id":"osm_node_2342909638","map_feature_id":null,"name":"中国联通","osm_id":2342909638,"osm_type":"node","osm_version":4,"source_timestamp":"2026-04-25T08:16:15Z","source_url":"https://www.openstreetmap.org/node/2342909638","space_id":null,"tags":{"brand":"中国联通","brand:en":"China Unicom","brand:wikidata":"Q1068485","brand:zh":"中国联通","name":"中国联通","name:en":"China Unicom","name:zh":"中国联通","shop":"telecommunication"}},"type":"Feature"},{"geometry":{"coordinates":[118.928043502,32.111581204],"type":"Point"},"id":"osm_node_2342909639","properties":{"asset_id":"osm_node_2342909639","geometry_role":"mapped_point_of_interest","id":"osm_node_2342909639","map_feature_id":null,"name":"波浪湾","osm_id":2342909639,"osm_type":"node","osm_version":1,"source_timestamp":"2013-06-13T03:35:12Z","source_url":"https://www.openstreetmap.org/node/2342909639","space_id":null,"tags":{"name":"波浪湾","shop":"hairdresser"}},"type":"Feature"},{"geometry":{"coordinates":[118.928049803,32.111557802],"type":"Point"},"id":"osm_node_2342909640","properties":{"asset_id":"osm_node_2342909640","geometry_role":"mapped_point_of_interest","id":"osm_node_2342909640","map_feature_id":null,"name":"校园眼镜","osm_id":2342909640,"osm_type":"node","osm_version":1,"source_timestamp":"2013-06-13T03:35:12Z","source_url":"https://www.openstreetmap.org/node/2342909640","space_id":null,"tags":{"name":"校园眼镜","shop":"optician"}},"type":"Feature"},{"geometry":{"coordinates":[118.928087003,32.111420898],"type":"Point"},"id":"osm_node_2342909641","properties":{"asset_id":"osm_node_2342909641","geometry_role":"mapped_point_of_interest","id":"osm_node_2342909641","map_feature_id":null,"name":"邮苑书店","osm_id":2342909641,"osm_type":"node","osm_version":1,"source_timestamp":"2013-06-13T03:35:12Z","source_url":"https://www.openstreetmap.org/node/2342909641","space_id":null,"tags":{"name":"邮苑书店","shop":"books"}},"type":"Feature"},{"geometry":{"coordinates":[118.928113497,32.111341304],"type":"Point"},"id":"osm_node_2342909642","properties":{"asset_id":"osm_node_2342909642","geometry_role":"mapped_point_of_interest","id":"osm_node_2342909642","map_feature_id":null,"name":"HOTDOG吧","osm_id":2342909642,"osm_type":"node","osm_version":1,"source_timestamp":"2013-06-13T03:35:12Z","source_url":"https://www.openstreetmap.org/node/2342909642","space_id":null,"tags":{"amenity":"fast_food","name":"HOTDOG吧"}},"type":"Feature"},{"geometry":{"coordinates":[118.925959298,32.116465098],"type":"Point"},"id":"osm_node_2345199655","properties":{"asset_id":"osm_node_2345199655","geometry_role":"mapped_point_of_interest","id":"osm_node_2345199655","map_feature_id":null,"name":"鼎山","osm_id":2345199655,"osm_type":"node","osm_version":2,"source_timestamp":"2020-12-27T07:53:08Z","source_url":"https://www.openstreetmap.org/node/2345199655","space_id":null,"tags":{"ele":"31","name":"鼎山","natural":"peak"}},"type":"Feature"},{"geometry":{"coordinates":[118.927719496,32.120077302],"type":"Point"},"id":"osm_node_2354471368","properties":{"asset_id":"osm_node_2354471368","geometry_role":"mapped_point_of_interest","id":"osm_node_2354471368","map_feature_id":null,"name":"南邮置业","osm_id":2354471368,"osm_type":"node","osm_version":2,"source_timestamp":"2020-12-27T07:53:08Z","source_url":"https://www.openstreetmap.org/node/2354471368","space_id":null,"tags":{"name":"南邮置业","shop":"yes"}},"type":"Feature"},{"geometry":{"coordinates":[118.930336704,32.118257202],"type":"Point"},"id":"osm_node_2354475712","properties":{"asset_id":"osm_node_2354475712","geometry_role":"mapped_point_of_interest","id":"osm_node_2354475712","map_feature_id":null,"name":"南京邮电大学通达学院","osm_id":2354475712,"osm_type":"node","osm_version":1,"source_timestamp":"2013-06-21T07:42:59Z","source_url":"https://www.openstreetmap.org/node/2354475712","space_id":null,"tags":{"amenity":"college","name":"南京邮电大学通达学院","name:en":"Tongda College of Nanjing University of Posts and Telecommunications"}},"type":"Feature"},{"geometry":{"coordinates":[118.926033405,32.1077811],"type":"Point"},"id":"osm_node_2357028191","properties":{"asset_id":"osm_node_2357028191","geometry_role":"mapped_point_of_interest","id":"osm_node_2357028191","map_feature_id":null,"name":"腾飞石","osm_id":2357028191,"osm_type":"node","osm_version":1,"source_timestamp":"2013-06-23T10:43:54Z","source_url":"https://www.openstreetmap.org/node/2357028191","space_id":null,"tags":{"historic":"monument","name":"腾飞石"}},"type":"Feature"},{"geometry":{"coordinates":[118.928526495,32.110369403],"type":"Point"},"id":"osm_node_2357066955","properties":{"asset_id":"osm_node_2357066955","geometry_role":"mapped_point_of_interest","id":"osm_node_2357066955","map_feature_id":null,"name":"仙林湾","osm_id":2357066955,"osm_type":"node","osm_version":1,"source_timestamp":"2013-06-23T11:08:49Z","source_url":"https://www.openstreetmap.org/node/2357066955","space_id":null,"tags":{"amenity":"restaurant","cuisine":"chinese","name":"仙林湾"}},"type":"Feature"},{"geometry":{"coordinates":[118.923120504,32.117223498],"type":"Point"},"id":"osm_node_10899386622","properties":{"asset_id":"osm_node_10899386622","geometry_role":"mapped_point_of_interest","id":"osm_node_10899386622","map_feature_id":null,"name":"学科楼报告厅","osm_id":10899386622,"osm_type":"node","osm_version":2,"source_timestamp":"2023-05-15T13:29:03Z","source_url":"https://www.openstreetmap.org/node/10899386622","space_id":null,"tags":{"building":"residential","landuse":"residential","name":"学科楼报告厅"}},"type":"Feature"},{"geometry":{"coordinates":[118.927665598,32.117100699],"type":"Point"},"id":"osm_node_10899412245","properties":{"asset_id":"osm_node_10899412245","geometry_role":"mapped_point_of_interest","id":"osm_node_10899412245","map_feature_id":null,"name":"战邮广场","osm_id":10899412245,"osm_type":"node","osm_version":1,"source_timestamp":"2023-05-15T13:29:03Z","source_url":"https://www.openstreetmap.org/node/10899412245","space_id":null,"tags":{"name":"战邮广场","place":"square"}},"type":"Feature"},{"geometry":{"coordinates":[118.927792696,32.1201135],"type":"Point"},"id":"osm_node_11432612369","properties":{"asset_id":"osm_node_11432612369","geometry_role":"mapped_point_of_interest","id":"osm_node_11432612369","map_feature_id":null,"name":"麦当劳","osm_id":11432612369,"osm_type":"node","osm_version":3,"source_timestamp":"2026-08-04T08:40:04Z","source_url":"https://www.openstreetmap.org/node/11432612369","space_id":null,"tags":{"amenity":"fast_food","brand":"麦当劳","brand:en":"McDonald's","brand:wikidata":"Q38076","brand:zh":"麦当劳","cuisine":"burger","name":"麦当劳","name:en":"McDonald's","name:zh":"麦当劳","takeaway":"yes"}},"type":"Feature"},{"geometry":{"coordinates":[118.928605595,32.111617703],"type":"Point"},"id":"osm_node_11879198157","properties":{"asset_id":"osm_node_11879198157","geometry_role":"mapped_point_of_interest","id":"osm_node_11879198157","map_feature_id":null,"name":"梅苑","osm_id":11879198157,"osm_type":"node","osm_version":1,"source_timestamp":"2024-05-04T15:42:45Z","source_url":"https://www.openstreetmap.org/node/11879198157","space_id":null,"tags":{"building":"residential","landuse":"residential","name":"梅苑"}},"type":"Feature"},{"geometry":{"coordinates":[118.921137404,32.118383303],"type":"Point"},"id":"osm_node_14072283502","properties":{"asset_id":"osm_node_14072283502","geometry_role":"mapped_point_of_interest","id":"osm_node_14072283502","map_feature_id":null,"name":"","osm_id":14072283502,"osm_type":"node","osm_version":1,"source_timestamp":"2026-08-04T08:40:04Z","source_url":"https://www.openstreetmap.org/node/14072283502","space_id":null,"tags":{"highway":"crossing"}},"type":"Feature"},{"geometry":{"coordinates":[118.923627001,32.116326496],"type":"Point"},"id":"osm_node_14072283503","properties":{"asset_id":"osm_node_14072283503","geometry_role":"mapped_point_of_interest","id":"osm_node_14072283503","map_feature_id":null,"name":"","osm_id":14072283503,"osm_type":"node","osm_version":1,"source_timestamp":"2026-08-04T08:40:04Z","source_url":"https://www.openstreetmap.org/node/14072283503","space_id":null,"tags":{"highway":"crossing"}},"type":"Feature"},{"geometry":{"coordinates":[118.923720403,32.1161822],"type":"Point"},"id":"osm_node_14072283504","properties":{"asset_id":"osm_node_14072283504","geometry_role":"mapped_point_of_interest","id":"osm_node_14072283504","map_feature_id":null,"name":"","osm_id":14072283504,"osm_type":"node","osm_version":1,"source_timestamp":"2026-08-04T08:40:04Z","source_url":"https://www.openstreetmap.org/node/14072283504","space_id":null,"tags":{"highway":"crossing"}},"type":"Feature"}],"name":"pois","type":"FeatureCollection"}
