{"features":[{"geometry":{"coordinates":[[[118.92656290495852,32.12250459958944],[118.92539960537447,32.12194620440921],[118.92573120449137,32.121456600949884],[118.92690329662317,32.12201349742916],[118.92656290495852,32.12250459958944]]],"type":"Polygon"},"id":"osm_way_223859795","properties":{"area_m2":7952.489778,"asset_id":"osm_way_223859795","center":[94.699468,775.873805],"geometry_role":"mapped_sports_outline","id":"osm_way_223859795","map_feature_id":null,"name":"北区篮球场","osm_id":223859795,"osm_type":"way","osm_version":4,"source_timestamp":"2018-11-11T07:47:12Z","source_url":"https://www.openstreetmap.org/way/223859795","space_id":null,"sport":"basketball","tags":{"leisure":"pitch","name":"北区篮球场","name:zh":"北区篮球场","sport":"basketball"}},"type":"Feature"},{"geometry":{"coordinates":[[[118.92637800045078,32.12277830280337],[118.92520969819617,32.12222910071513],[118.92539960537447,32.12194620440921],[118.92656290495852,32.12250459958944],[118.92637800045078,32.12277830280337]]],"type":"Polygon"},"id":"osm_way_223859800","properties":{"area_m2":4481.164006,"asset_id":"osm_way_223859800","center":[68.867336,817.850951],"geometry_role":"mapped_sports_outline","id":"osm_way_223859800","map_feature_id":null,"name":"北区网球场","osm_id":223859800,"osm_type":"way","osm_version":4,"source_timestamp":"2018-11-11T07:47:12Z","source_url":"https://www.openstreetmap.org/way/223859800","space_id":null,"sport":"tennis","tags":{"leisure":"pitch","name":"北区网球场","name:zh":"北区网球场","sport":"tennis"}},"type":"Feature"},{"geometry":{"coordinates":[[[118.93022890172735,32.11723889550468],[118.9295075017122,32.11723630178066],[118.92949369662813,32.115818399818544],[118.92986620074983,32.11581559847261],[118.9298753948027,32.11638230097346],[118.93005790135712,32.116382395552925],[118.93005740032861,32.11693099953429],[118.93022359797364,32.116931098993774],[118.93022890172735,32.11723889550468]]],"type":"Polygon"},"id":"osm_way_223859818","properties":{"area_m2":7716.971814,"asset_id":"osm_way_223859818","center":[447.649015,188.212087],"geometry_role":"mapped_sports_outline","id":"osm_way_223859818","map_feature_id":null,"name":"南区篮球场","osm_id":223859818,"osm_type":"way","osm_version":6,"source_timestamp":"2018-11-11T07:47:12Z","source_url":"https://www.openstreetmap.org/way/223859818","space_id":null,"sport":"basketball","tags":{"leisure":"pitch","name":"南区篮球场","name:zh":"南区篮球场","sport":"basketball"}},"type":"Feature"},{"geometry":{"coordinates":[[[118.92927469959871,32.11832219701086],[118.9288267012554,32.11811319907312],[118.92892849623354,32.11795660427173],[118.9291653968991,32.118067098468856],[118.92937659995101,32.11816560025977],[118.92927469959871,32.11832219701086]]],"type":"Polygon"},"id":"osm_way_223859819","properties":{"area_m2":956.999924,"asset_id":"osm_way_223859819","center":[380.799979,354.994807],"geometry_role":"mapped_sports_outline","id":"osm_way_223859819","map_feature_id":null,"name":"手球场","osm_id":223859819,"osm_type":"way","osm_version":4,"source_timestamp":"2026-08-04T08:40:04Z","source_url":"https://www.openstreetmap.org/way/223859819","space_id":null,"sport":"handball","tags":{"leisure":"pitch","name":"手球场","name:zh":"手球场","sport":"handball"}},"type":"Feature"},{"geometry":{"coordinates":[[[118.9303026012272,32.1174519013251],[118.92950639866153,32.117453298451295],[118.9295075017122,32.11723630178066],[118.93022890172735,32.11723889550468],[118.93030200395783,32.11723879994555],[118.9303026012272,32.1174519013251]]],"type":"Polygon"},"id":"osm_way_223859821","properties":{"area_m2":1788.590007,"asset_id":"osm_way_223859821","center":[458.024646,268.294196],"geometry_role":"mapped_sports_outline","id":"osm_way_223859821","map_feature_id":null,"name":"南区排球场","osm_id":223859821,"osm_type":"way","osm_version":4,"source_timestamp":"2018-11-11T07:47:13Z","source_url":"https://www.openstreetmap.org/way/223859821","space_id":null,"sport":"volleyball","tags":{"leisure":"pitch","name":"南区排球场","name:zh":"南区排球场","sport":"volleyball"}},"type":"Feature"},{"geometry":{"coordinates":[[[118.92950479872657,32.11777610031958],[118.92950639866153,32.117453298451295],[118.9303026012272,32.1174519013251],[118.93030349627676,32.11777729875567],[118.92950479872657,32.11777610031958]]],"type":"Polygon"},"id":"osm_way_223859822","properties":{"area_m2":2704.719667,"asset_id":"osm_way_223859822","center":[457.632049,298.181261],"geometry_role":"mapped_sports_outline","id":"osm_way_223859822","map_feature_id":null,"name":"南区网球场","osm_id":223859822,"osm_type":"way","osm_version":4,"source_timestamp":"2018-11-11T07:47:13Z","source_url":"https://www.openstreetmap.org/way/223859822","space_id":null,"sport":"tennis","tags":{"leisure":"pitch","name":"南区网球场","name:zh":"南区网球场","sport":"tennis"}},"type":"Feature"},{"geometry":{"coordinates":[[[118.92706430418224,32.12178240422474],[118.92690329662317,32.12201349742916],[118.92600409899843,32.12158910178479],[118.92616320050227,32.1213570014501],[118.92701789952157,32.12176049907836],[118.92704180331096,32.121771797240676],[118.92706430418224,32.12178240422474]]],"type":"Polygon"},"id":"osm_way_223859834","properties":{"area_m2":2893.212723,"asset_id":"osm_way_223859834","center":[131.467254,743.815713],"geometry_role":"mapped_sports_outline","id":"osm_way_223859834","map_feature_id":null,"name":"排球场和轮滑场","osm_id":223859834,"osm_type":"way","osm_version":5,"source_timestamp":"2026-05-21T00:37:45Z","source_url":"https://www.openstreetmap.org/way/223859834","space_id":null,"sport":"volleyball","tags":{"leisure":"pitch","name":"排球场和轮滑场","name:zh":"排球场和轮滑场","sport":"volleyball","wheelchair":"limited"}},"type":"Feature"},{"geometry":{"coordinates":[[[118.92933439785011,32.11713920372225],[118.92859279836972,32.11713859926424],[118.92859389625704,32.11616250206627],[118.92933560418633,32.11616309603184],[118.92933439785011,32.11713920372225]]],"type":"Polygon"},"id":"osm_way_223859839","properties":{"area_m2":7576.025057,"asset_id":"osm_way_223859839","center":[370.784842,189.722337],"geometry_role":"mapped_sports_outline","id":"osm_way_223859839","map_feature_id":null,"name":"南区足球场","osm_id":223859839,"osm_type":"way","osm_version":3,"source_timestamp":"2018-11-11T07:47:14Z","source_url":"https://www.openstreetmap.org/way/223859839","space_id":null,"sport":"soccer","tags":{"leisure":"pitch","name":"南区足球场","name:zh":"南区足球场","sport":"soccer"}},"type":"Feature"},{"geometry":{"coordinates":[[[118.92881070444338,32.11789889819716],[118.92871009674941,32.118053499567225],[118.92826440266035,32.117845600903],[118.92836500032122,32.117691000023626],[118.92844789549449,32.117729702143876],[118.92881070444338,32.11789889819716]]],"type":"Polygon"},"id":"osm_way_223859847","properties":{"area_m2":939.889417,"asset_id":"osm_way_223859847","center":[328.104805,324.422993],"geometry_role":"mapped_sports_outline","id":"osm_way_223859847","map_feature_id":null,"name":"手球场","osm_id":223859847,"osm_type":"way","osm_version":4,"source_timestamp":"2018-11-11T07:47:14Z","source_url":"https://www.openstreetmap.org/way/223859847","space_id":null,"sport":"handball","tags":{"leisure":"pitch","name":"手球场","name:zh":"手球场","sport":"handball"}},"type":"Feature"},{"geometry":{"coordinates":[[[118.92433839528377,32.1215928988697],[118.92370660151163,32.12128779733632],[118.92428159887027,32.12043370340334],[118.92491339895733,32.12073880209699],[118.92433839528377,32.1215928988697]]],"type":"Polygon"},"id":"osm_way_225104362","properties":{"area_m2":7482.681057,"asset_id":"osm_way_225104362","center":[-77.018169,665.542916],"geometry_role":"mapped_sports_outline","id":"osm_way_225104362","map_feature_id":null,"name":"北区足球场","osm_id":225104362,"osm_type":"way","osm_version":3,"source_timestamp":"2018-11-11T07:47:16Z","source_url":"https://www.openstreetmap.org/way/225104362","space_id":null,"sport":"soccer","tags":{"leisure":"pitch","name":"北区足球场","name:zh":"北区足球场","sport":"soccer"}},"type":"Feature"}],"name":"sports","type":"FeatureCollection"}
