{"features":[{"geometry":{"coordinates":[[[118.923063395,32.113767004],[118.923029595,32.113766796],[118.923035202,32.113594999],[118.923065897,32.113355699],[118.923132796,32.112906399],[118.923240901,32.112906398],[118.923243197,32.112549004],[118.923218402,32.111885704],[118.923195905,32.111298097],[118.923187502,32.111104604],[118.923173297,32.110775404],[118.923159804,32.1103614],[118.923107797,32.108947601],[118.923106702,32.108757903],[118.923659397,32.108760004],[118.923687295,32.108786603],[118.923717605,32.1088499],[118.923757295,32.108887504],[118.923825001,32.108929001],[118.923861804,32.108938102],[118.923855404,32.109700404],[118.923507504,32.109696401],[118.923498398,32.1101419],[118.923471505,32.1101435],[118.923469595,32.110020098],[118.923362195,32.110021702],[118.923362201,32.110214998],[118.923471499,32.110214997],[118.923471499,32.110169503],[118.9235003,32.110167902],[118.923502805,32.110216595],[118.923843703,32.110216602],[118.923860098,32.112949897],[118.923827402,32.113189201],[118.923710598,32.113608504],[118.923645201,32.113814103],[118.923626603,32.113837899],[118.923589205,32.113837899],[118.923063396,32.113846402],[118.923063395,32.113767004]]],"type":"Polygon"},"id":"osm_way_224940397","properties":{"area_m2":33797.608287,"asset_id":"osm_way_224940397","center":[-135.706359,-408.073579],"geometry_role":"mapped_surface_outline","id":"osm_way_224940397","map_feature_id":null,"name":"","osm_id":224940397,"osm_type":"way","osm_version":9,"source_timestamp":"2025-10-21T03:39:44Z","source_url":"https://www.openstreetmap.org/way/224940397","space_id":null,"tags":{"amenity":"parking","capacity":"30","parking":"lane"}},"type":"Feature"},{"geometry":{"coordinates":[[[118.9278849,32.112099702],[118.927869897,32.112135602],[118.927811999,32.112134896],[118.927753298,32.112127204],[118.927717202,32.112100398],[118.927766503,32.111718396],[118.927921702,32.111718504],[118.927945105,32.111718698],[118.927919097,32.111854196],[118.927898602,32.1119908],[118.9278849,32.112099702]]],"type":"Polygon"},"id":"osm_way_225001183","properties":{"area_m2":728.645266,"asset_id":"osm_way_225001183","center":[272.786932,-336.598906],"geometry_role":"mapped_surface_outline","id":"osm_way_225001183","map_feature_id":null,"name":"","osm_id":225001183,"osm_type":"way","osm_version":6,"source_timestamp":"2025-10-20T03:47:29Z","source_url":"https://www.openstreetmap.org/way/225001183","space_id":null,"tags":{"amenity":"parking","capacity":"10","parking":"street_side"}},"type":"Feature"},{"geometry":{"coordinates":[[[118.927924098,32.111633396],[118.927778395,32.111631304],[118.927844499,32.111368103],[118.927917598,32.111128597],[118.927941404,32.111088504],[118.927988804,32.111078402],[118.928135899,32.111080203],[118.928050205,32.111325402],[118.927968098,32.111633403],[118.927924098,32.111633396]]],"type":"Polygon"},"id":"osm_way_225001184","properties":{"area_m2":1123.54418,"asset_id":"osm_way_225001184","center":[285.598205,-399.212335],"geometry_role":"mapped_surface_outline","id":"osm_way_225001184","map_feature_id":null,"name":"","osm_id":225001184,"osm_type":"way","osm_version":6,"source_timestamp":"2025-10-20T03:47:29Z","source_url":"https://www.openstreetmap.org/way/225001184","space_id":null,"tags":{"amenity":"parking","capacity":"10","parking":"lane"}},"type":"Feature"},{"geometry":{"coordinates":[[[118.927869695,32.112792904],[118.927769199,32.112790304],[118.9276786,32.112789203],[118.927691299,32.112253004],[118.927714799,32.112219003],[118.927763301,32.112207297],[118.927870498,32.112214098],[118.927870401,32.112281096],[118.927869695,32.112792904]]],"type":"Polygon"},"id":"osm_way_225002055","properties":{"area_m2":1113.740413,"asset_id":"osm_way_225002055","center":[267.105105,-271.83551],"geometry_role":"mapped_surface_outline","id":"osm_way_225002055","map_feature_id":null,"name":"","osm_id":225002055,"osm_type":"way","osm_version":4,"source_timestamp":"2025-10-20T03:47:29Z","source_url":"https://www.openstreetmap.org/way/225002055","space_id":null,"tags":{"amenity":"parking","capacity":"10","parking":"street_side"}},"type":"Feature"},{"geometry":{"coordinates":[[[118.927869898,32.113367104],[118.927835304,32.113379997],[118.927705097,32.113381204],[118.927684299,32.113364798],[118.927676799,32.112860303],[118.927769998,32.112862104],[118.927871701,32.1128641],[118.927870701,32.113268699],[118.927869898,32.113367104]]],"type":"Polygon"},"id":"osm_way_225002059","properties":{"area_m2":1028.358297,"asset_id":"osm_way_225002059","center":[265.642222,-203.951988],"geometry_role":"mapped_surface_outline","id":"osm_way_225002059","map_feature_id":null,"name":"","osm_id":225002059,"osm_type":"way","osm_version":4,"source_timestamp":"2025-10-20T03:47:29Z","source_url":"https://www.openstreetmap.org/way/225002059","space_id":null,"tags":{"amenity":"parking","capacity":"10","parking":"street_side"}},"type":"Feature"}],"name":"surfaces","type":"FeatureCollection"}
