{"features":[{"geometry":{"coordinates":[[[118.927103097,32.109006499],[118.927115404,32.108962297],[118.927185205,32.108982403],[118.927265202,32.108774703],[118.927142498,32.108743298],[118.927024402,32.108717903],[118.927038902,32.1086661],[118.927001304,32.108629801],[118.9269171,32.108614099],[118.926848696,32.108597399],[118.926827396,32.1085742],[118.926830397,32.108251999],[118.926870501,32.1082901],[118.926942305,32.108339001],[118.927025701,32.108381801],[118.927119297,32.108429902],[118.927203603,32.108451997],[118.927344597,32.108488896],[118.927457296,32.108516204],[118.927558098,32.108518404],[118.927661095,32.108520696],[118.927763102,32.108538904],[118.927850901,32.108560801],[118.9279347,32.108584401],[118.9280366,32.108616203],[118.928202604,32.108673798],[118.928285195,32.108702502],[118.9283639,32.108729796],[118.928396105,32.108775196],[118.928433599,32.108838798],[118.928444295,32.108920604],[118.928385304,32.108984196],[118.928347803,32.109038704],[118.928353104,32.109097799],[118.928294102,32.109125098],[118.928176103,32.1091205],[118.928111696,32.109115998],[118.928066696,32.1091581],[118.9278951,32.109054798],[118.9278185,32.109012202],[118.927682896,32.109191896],[118.927842395,32.109277803],[118.927860402,32.109332899],[118.927945599,32.109401304],[118.927950803,32.109447702],[118.927977604,32.109488603],[118.9280023,32.109534704],[118.928004502,32.109583997],[118.928009803,32.109643102],[118.927999899,32.109689703],[118.927977601,32.109738504],[118.927950803,32.109793001],[118.9279007,32.109853004],[118.927822105,32.109883902],[118.927747004,32.109906602],[118.927655796,32.109915702],[118.927564598,32.109938404],[118.927473401,32.109965696],[118.927382204,32.109992997],[118.927296399,32.110020198],[118.927205203,32.1100566],[118.927140804,32.1100929],[118.927060301,32.110138402],[118.926979901,32.110161101],[118.926883297,32.110165602],[118.926792098,32.1101474],[118.926706303,32.110115595],[118.926668704,32.110083797],[118.9266365,32.110047497],[118.926620403,32.109993003],[118.926609697,32.109929299],[118.926614498,32.109412801],[118.9266556,32.109402002],[118.926674702,32.109402802],[118.926740103,32.109444],[118.926792402,32.109460801],[118.926849702,32.109473503],[118.926912101,32.109475196],[118.926974805,32.109455598],[118.927027097,32.109423604],[118.927063595,32.109386403],[118.927073698,32.1093775],[118.927087402,32.109373603],[118.927205095,32.109372704],[118.927216904,32.109371902],[118.927225603,32.109367296],[118.927280898,32.109229602],[118.927275201,32.109192998],[118.927257405,32.1091515],[118.927220203,32.109117396],[118.927184703,32.109096704],[118.927139295,32.109083596],[118.927108402,32.109040602],[118.927103097,32.109006499]]],"type":"Polygon"},"id":"osm_way_223859823","properties":{"area_m2":18217.989032,"asset_id":"osm_way_223859823","center":[241.481703,-630.244524],"geometry_role":"mapped_water_outline","id":"osm_way_223859823","map_feature_id":null,"name":"中博湖","osm_id":223859823,"osm_type":"way","osm_version":12,"source_timestamp":"2020-08-20T04:31:26Z","source_url":"https://www.openstreetmap.org/way/223859823","space_id":null,"tags":{"name":"中博湖","name:zh":"中博湖","natural":"water","water":"pond"}},"type":"Feature"},{"geometry":{"coordinates":[[[118.924756397,32.109209698],[118.924738697,32.109223199],[118.924685102,32.109211802],[118.924642196,32.109198203],[118.924607301,32.1091846],[118.924580501,32.109166401],[118.924567095,32.109139104],[118.924569804,32.109096004],[118.924577804,32.109059597],[118.924585805,32.1090278],[118.924580502,32.109007397],[118.924553702,32.108998298],[118.924521502,32.1089869],[118.924497299,32.108968697],[118.924494698,32.108948298],[118.924518795,32.108939201],[118.924564395,32.108934702],[118.924599295,32.108945996],[118.924612696,32.108975601],[118.924636804,32.109007398],[118.9246609,32.109034604],[118.924676997,32.109061896],[118.924690497,32.1090937],[118.924695805,32.109130004],[118.924709201,32.109157301],[118.924728005,32.109173196],[118.924749501,32.109189104],[118.924756397,32.109209698]]],"type":"Polygon"},"id":"osm_way_223859836","properties":{"area_m2":309.004063,"asset_id":"osm_way_223859836","center":[-23.609642,-656.235606],"geometry_role":"mapped_water_outline","id":"osm_way_223859836","map_feature_id":null,"name":"","osm_id":223859836,"osm_type":"way","osm_version":1,"source_timestamp":"2013-05-31T13:35:08Z","source_url":"https://www.openstreetmap.org/way/223859836","space_id":null,"tags":{"natural":"water"}},"type":"Feature"},{"geometry":{"coordinates":[[[118.926383601,32.108548601],[118.926215205,32.108549603],[118.926214903,32.108479698],[118.926214804,32.1084533],[118.926214399,32.108356302],[118.926382499,32.1083559],[118.926382898,32.1084526],[118.926382997,32.108478998],[118.926383601,32.108548601]]],"type":"Polygon"},"id":"osm_way_224938954","properties":{"area_m2":339.66297,"asset_id":"osm_way_224938954","center":[135.536764,-723.729025],"geometry_role":"mapped_water_outline","id":"osm_way_224938954","map_feature_id":null,"name":"","osm_id":224938954,"osm_type":"way","osm_version":4,"source_timestamp":"2021-04-20T15:18:10Z","source_url":"https://www.openstreetmap.org/way/224938954","space_id":null,"tags":{"natural":"water","water":"basin"}},"type":"Feature"},{"geometry":{"coordinates":[[[118.924625299,32.1166994],[118.924634805,32.116704397],[118.924649404,32.1167148],[118.924665598,32.116784499],[118.924670204,32.116794901],[118.924680504,32.116801896],[118.924902802,32.116921397],[118.924909896,32.116929199],[118.924913405,32.116937804],[118.924935696,32.117042496],[118.924935996,32.117047696],[118.924934302,32.1170528],[118.924932002,32.117055297],[118.924928296,32.117057004],[118.924923404,32.117056699],[118.924918697,32.117055102],[118.924554501,32.116899598],[118.924522903,32.116873598],[118.924502996,32.116843099],[118.924488602,32.116802604],[118.9244958,32.116761303],[118.924512099,32.116734502],[118.924537302,32.116713897],[118.924578796,32.116697897],[118.9246131,32.116696303],[118.924625299,32.1166994]]],"type":"Polygon"},"id":"osm_way_1173057057","properties":{"area_m2":717.526753,"asset_id":"osm_way_1173057057","center":[-32.523604,207.297806],"geometry_role":"mapped_water_outline","id":"osm_way_1173057057","map_feature_id":null,"name":"","osm_id":1173057057,"osm_type":"way","osm_version":2,"source_timestamp":"2023-05-16T05:28:12Z","source_url":"https://www.openstreetmap.org/way/1173057057","space_id":null,"tags":{"natural":"water","water":"pond"}},"type":"Feature"}],"name":"waters","type":"FeatureCollection"}
