{"coordinate_frame":"campus_local_east_north_m","features":[{"geometry":{"coordinates":[[[-346.0,196.715],[-305.28,108.548],[-266.066,119.703],[-293.238,221.291],[-346.0,196.715]]],"type":"Polygon"},"id":"njupt_k_dining_04","properties":{"asset_id":"njupt_k_dining_04","base_z_m":0.0,"building_id":"building:map:njupt_k_dining_04","geometry_role":"roof_block_proxy","geometry_status":"derived_footprint","height_m":20.6,"height_source":"five observed official design storeys × assumed 4.0m dining / 3.5m dormitory + 0.6m parapet","levels":5.0,"measured_height":false,"min_height_m":0.0,"name":"南四食堂（K组团）","search_building_id":null,"source_url":"https://www.njupt.edu.cn/2024/0621/c72a266456/page.htm"},"type":"Feature"},{"geometry":{"coordinates":[[[-396.22,307.421],[-381.933,287.495],[-334.636,308.787],[-349.678,331.515],[-396.22,307.421]]],"type":"Polygon"},"id":"njupt_k_dormitory_01","properties":{"asset_id":"njupt_k_dormitory_01","base_z_m":0.0,"building_id":"building:map:njupt_k_dormitory_01","geometry_role":"roof_block_proxy","geometry_status":"derived_footprint","height_m":18.1,"height_source":"five observed official design storeys × assumed 4.0m dining / 3.5m dormitory + 0.6m parapet","levels":5.0,"measured_height":false,"min_height_m":0.0,"name":"K组团宿舍（模型序号1）","search_building_id":null,"source_url":"https://www.njupt.edu.cn/2024/0621/c72a266456/page.htm"},"type":"Feature"},{"geometry":{"coordinates":[[[-338.685,335.305],[-322.982,313.942],[-280.581,337.484],[-295.592,358.823],[-338.685,335.305]]],"type":"Polygon"},"id":"njupt_k_dormitory_02","properties":{"asset_id":"njupt_k_dormitory_02","base_z_m":0.0,"building_id":"building:map:njupt_k_dormitory_02","geometry_role":"roof_block_proxy","geometry_status":"derived_footprint","height_m":18.1,"height_source":"five observed official design storeys × assumed 4.0m dining / 3.5m dormitory + 0.6m parapet","levels":5.0,"measured_height":false,"min_height_m":0.0,"name":"K组团宿舍（模型序号2）","search_building_id":null,"source_url":"https://www.njupt.edu.cn/2024/0621/c72a266456/page.htm"},"type":"Feature"},{"geometry":{"coordinates":[[[-283.213,362.565],[-266.078,339.071],[-227.141,362.731],[-243.569,385.507],[-283.213,362.565]]],"type":"Polygon"},"id":"njupt_k_dormitory_03","properties":{"asset_id":"njupt_k_dormitory_03","base_z_m":0.0,"building_id":"building:map:njupt_k_dormitory_03","geometry_role":"roof_block_proxy","geometry_status":"derived_footprint","height_m":18.1,"height_source":"five observed official design storeys × assumed 4.0m dining / 3.5m dormitory + 0.6m parapet","levels":5.0,"measured_height":false,"min_height_m":0.0,"name":"K组团宿舍（模型序号3）","search_building_id":null,"source_url":"https://www.njupt.edu.cn/2024/0621/c72a266456/page.htm"},"type":"Feature"},{"geometry":{"coordinates":[[[-369.032,267.616],[-350.649,250.327],[-305.554,277.248],[-325.984,293.219],[-369.032,267.616]]],"type":"Polygon"},"id":"njupt_k_dormitory_04","properties":{"asset_id":"njupt_k_dormitory_04","base_z_m":0.0,"building_id":"building:map:njupt_k_dormitory_04","geometry_role":"roof_block_proxy","geometry_status":"derived_footprint","height_m":18.1,"height_source":"five observed official design storeys × assumed 4.0m dining / 3.5m dormitory + 0.6m parapet","levels":5.0,"measured_height":false,"min_height_m":0.0,"name":"K组团宿舍（模型序号4）","search_building_id":null,"source_url":"https://www.njupt.edu.cn/2024/0621/c72a266456/page.htm"},"type":"Feature"},{"geometry":{"coordinates":[[[-275.27,316.476],[-254.162,301.177],[-219.367,324.284],[-231.53,342.055],[-275.27,316.476]]],"type":"Polygon"},"id":"njupt_k_dormitory_05","properties":{"asset_id":"njupt_k_dormitory_05","base_z_m":0.0,"building_id":"building:map:njupt_k_dormitory_05","geometry_role":"roof_block_proxy","geometry_status":"derived_footprint","height_m":18.1,"height_source":"five observed official design storeys × assumed 4.0m dining / 3.5m dormitory + 0.6m parapet","levels":5.0,"measured_height":false,"min_height_m":0.0,"name":"K组团宿舍（模型序号5）","search_building_id":null,"source_url":"https://www.njupt.edu.cn/2024/0621/c72a266456/page.htm"},"type":"Feature"},{"geometry":{"coordinates":[[[-348.155,231.498],[-326.309,214.091],[-283.338,243.167],[-306.463,255.759],[-348.155,231.498]]],"type":"Polygon"},"id":"njupt_k_dormitory_06","properties":{"asset_id":"njupt_k_dormitory_06","base_z_m":0.0,"building_id":"building:map:njupt_k_dormitory_06","geometry_role":"roof_block_proxy","geometry_status":"derived_footprint","height_m":18.1,"height_source":"five observed official design storeys × assumed 4.0m dining / 3.5m dormitory + 0.6m parapet","levels":5.0,"measured_height":false,"min_height_m":0.0,"name":"K组团宿舍（模型序号6）","search_building_id":null,"source_url":"https://www.njupt.edu.cn/2024/0621/c72a266456/page.htm"},"type":"Feature"},{"geometry":{"coordinates":[[[-305.853,525.319],[-299.778,515.468],[-248.403,546.086],[-254.908,556.284],[-305.853,525.319]]],"type":"Polygon"},"id":"osm_way_1173057023","properties":{"asset_id":"osm_way_1173057023","base_z_m":0.0,"building_id":"building:map:osm_way_1173057023","geometry_role":"mapped_building_outline","geometry_status":"derived_footprint","height_m":19.2,"height_source":"inferred building typology","levels":6.0,"measured_height":false,"min_height_m":0.0,"name":"","search_building_id":null,"source_url":"https://www.openstreetmap.org/way/1173057023"},"type":"Feature"},{"geometry":{"coordinates":[[[-287.512,495.102],[-281.437,485.251],[-230.062,515.869],[-236.568,526.067],[-287.512,495.102]]],"type":"Polygon"},"id":"osm_way_1173057024","properties":{"asset_id":"osm_way_1173057024","base_z_m":0.0,"building_id":"building:map:osm_way_1173057024","geometry_role":"mapped_building_outline","geometry_status":"derived_footprint","height_m":19.2,"height_source":"inferred building typology","levels":6.0,"measured_height":false,"min_height_m":0.0,"name":"","search_building_id":null,"source_url":"https://www.openstreetmap.org/way/1173057024"},"type":"Feature"},{"geometry":{"coordinates":[[[-350.342,601.317],[-344.268,591.466],[-292.893,622.084],[-299.408,632.282],[-350.342,601.317]]],"type":"Polygon"},"id":"osm_way_1173057025","properties":{"asset_id":"osm_way_1173057025","base_z_m":0.0,"building_id":"building:map:osm_way_1173057025","geometry_role":"mapped_building_outline","geometry_status":"derived_footprint","height_m":19.2,"height_source":"inferred building typology","levels":6.0,"measured_height":false,"min_height_m":0.0,"name":"","search_building_id":null,"source_url":"https://www.openstreetmap.org/way/1173057025"},"type":"Feature"},{"geometry":{"coordinates":[[[-326.547,556.314],[-320.473,546.463],[-269.098,577.081],[-275.613,587.279],[-326.547,556.314]]],"type":"Polygon"},"id":"osm_way_1173057026","properties":{"asset_id":"osm_way_1173057026","base_z_m":0.0,"building_id":"building:map:osm_way_1173057026","geometry_role":"mapped_building_outline","geometry_status":"derived_footprint","height_m":19.2,"height_source":"inferred building typology","levels":6.0,"measured_height":false,"min_height_m":0.0,"name":"","search_building_id":null,"source_url":"https://www.openstreetmap.org/way/1173057026"},"type":"Feature"},{"geometry":{"coordinates":[[[-286.227,639.97],[-280.153,630.119],[-243.792,651.607],[-249.812,661.57],[-286.227,639.97]]],"type":"Polygon"},"id":"osm_way_1173057027","properties":{"asset_id":"osm_way_1173057027","base_z_m":0.0,"building_id":"building:map:osm_way_1173057027","geometry_role":"mapped_building_outline","geometry_status":"derived_footprint","height_m":19.2,"height_source":"inferred building typology","levels":6.0,"measured_height":false,"min_height_m":0.0,"name":"","search_building_id":null,"source_url":"https://www.openstreetmap.org/way/1173057027"},"type":"Feature"},{"geometry":{"coordinates":[[[-258.317,594.453],[-252.242,584.602],[-215.882,606.079],[-221.902,616.053],[-258.317,594.453]]],"type":"Polygon"},"id":"osm_way_1173057028","properties":{"asset_id":"osm_way_1173057028","base_z_m":0.0,"building_id":"building:map:osm_way_1173057028","geometry_role":"mapped_building_outline","geometry_status":"derived_footprint","height_m":19.2,"height_source":"inferred building typology","levels":6.0,"measured_height":false,"min_height_m":0.0,"name":"","search_building_id":null,"source_url":"https://www.openstreetmap.org/way/1173057028"},"type":"Feature"},{"geometry":{"coordinates":[[[-245.688,561.606],[-239.613,551.754],[-203.252,573.232],[-209.272,583.195],[-245.688,561.606]]],"type":"Polygon"},"id":"osm_way_1173057029","properties":{"asset_id":"osm_way_1173057029","base_z_m":0.0,"building_id":"building:map:osm_way_1173057029","geometry_role":"mapped_building_outline","geometry_status":"derived_footprint","height_m":19.2,"height_source":"inferred building typology","levels":6.0,"measured_height":false,"min_height_m":0.0,"name":"","search_building_id":null,"source_url":"https://www.openstreetmap.org/way/1173057029"},"type":"Feature"},{"geometry":{"coordinates":[[[-228.284,530.995],[-222.209,521.144],[-185.848,542.622],[-191.868,552.585],[-228.284,530.995]]],"type":"Polygon"},"id":"osm_way_1173057030","properties":{"asset_id":"osm_way_1173057030","base_z_m":0.0,"building_id":"building:map:osm_way_1173057030","geometry_role":"mapped_building_outline","geometry_status":"derived_footprint","height_m":19.2,"height_source":"inferred building typology","levels":6.0,"measured_height":false,"min_height_m":0.0,"name":"","search_building_id":null,"source_url":"https://www.openstreetmap.org/way/1173057030"},"type":"Feature"},{"geometry":{"coordinates":[[[-438.124,369.653],[-428.075,351.81],[-382.817,378.325],[-392.835,394.904],[-401.689,389.656],[-398.507,384.323],[-418.618,372.485],[-422.147,378.81],[-438.124,369.653]]],"type":"Polygon"},"id":"osm_way_1173057031","properties":{"asset_id":"osm_way_1173057031","base_z_m":0.0,"building_id":"building:map:osm_way_1173057031","geometry_role":"mapped_building_outline","geometry_status":"derived_footprint","height_m":19.2,"height_source":"inferred building typology","levels":6.0,"measured_height":false,"min_height_m":0.0,"name":"樱苑50栋","search_building_id":null,"source_url":"https://www.openstreetmap.org/way/1173057031"},"type":"Feature"},{"geometry":{"coordinates":[[[-414.127,329.178],[-404.087,311.335],[-358.819,337.85],[-368.837,354.43],[-377.691,349.17],[-374.51,343.848],[-394.63,332.01],[-398.15,338.336],[-414.127,329.178]]],"type":"Polygon"},"id":"osm_way_1173057032","properties":{"asset_id":"osm_way_1173057032","base_z_m":0.0,"building_id":"building:map:osm_way_1173057032","geometry_role":"mapped_building_outline","geometry_status":"derived_footprint","height_m":19.2,"height_source":"inferred building typology","levels":6.0,"measured_height":false,"min_height_m":0.0,"name":"樱苑53栋","search_building_id":null,"source_url":"https://www.openstreetmap.org/way/1173057032"},"type":"Feature"},{"geometry":{"coordinates":[[[-360.57,361.354],[-350.52,343.499],[-305.262,370.026],[-315.28,386.594],[-324.134,381.346],[-320.952,376.012],[-341.063,364.175],[-344.593,370.511],[-360.57,361.354]]],"type":"Polygon"},"id":"osm_way_1173057033","properties":{"asset_id":"osm_way_1173057033","base_z_m":0.0,"building_id":"building:map:osm_way_1173057033","geometry_role":"mapped_building_outline","geometry_status":"derived_footprint","height_m":19.2,"height_source":"inferred building typology","levels":6.0,"measured_height":false,"min_height_m":0.0,"name":"樱苑54栋","search_building_id":null,"source_url":"https://www.openstreetmap.org/way/1173057033"},"type":"Feature"},{"geometry":{"coordinates":[[[-384.762,401.104],[-374.722,383.261],[-329.455,409.776],[-339.472,426.356],[-348.327,421.107],[-345.145,415.774],[-365.265,403.936],[-368.785,410.261],[-384.762,401.104]]],"type":"Polygon"},"id":"osm_way_1173057034","properties":{"asset_id":"osm_way_1173057034","base_z_m":0.0,"building_id":"building:map:osm_way_1173057034","geometry_role":"mapped_building_outline","geometry_status":"derived_footprint","height_m":19.2,"height_source":"inferred building typology","levels":6.0,"measured_height":false,"min_height_m":0.0,"name":"樱苑51栋","search_building_id":null,"source_url":"https://www.openstreetmap.org/way/1173057034"},"type":"Feature"},{"geometry":{"coordinates":[[[-307.38,391.371],[-297.34,373.528],[-252.073,400.044],[-262.091,416.623],[-270.945,411.364],[-267.763,406.041],[-287.873,394.204],[-291.403,400.529],[-307.38,391.371]]],"type":"Polygon"},"id":"osm_way_1173057035","properties":{"asset_id":"osm_way_1173057035","base_z_m":0.0,"building_id":"building:map:osm_way_1173057035","geometry_role":"mapped_building_outline","geometry_status":"derived_footprint","height_m":19.2,"height_source":"inferred building typology","levels":6.0,"measured_height":false,"min_height_m":0.0,"name":"樱苑55栋","search_building_id":null,"source_url":"https://www.openstreetmap.org/way/1173057035"},"type":"Feature"},{"geometry":{"coordinates":[[[-331.883,432.125],[-321.833,414.282],[-276.576,440.798],[-286.594,457.377],[-295.448,452.117],[-292.266,446.795],[-312.376,434.946],[-315.906,441.283],[-331.883,432.125]]],"type":"Polygon"},"id":"osm_way_1173057036","properties":{"asset_id":"osm_way_1173057036","base_z_m":0.0,"building_id":"building:map:osm_way_1173057036","geometry_role":"mapped_building_outline","geometry_status":"derived_footprint","height_m":19.2,"height_source":"inferred building typology","levels":6.0,"measured_height":false,"min_height_m":0.0,"name":"樱苑52栋","search_building_id":null,"source_url":"https://www.openstreetmap.org/way/1173057036"},"type":"Feature"},{"geometry":{"coordinates":[[[-175.91,37.217],[-165.483,19.426],[-136.299,37.448],[-54.883,37.216],[-55.313,58.647],[-142.312,57.592],[-175.91,37.217]]],"type":"Polygon"},"id":"osm_way_1173057050","properties":{"asset_id":"osm_way_1173057050","base_z_m":0.0,"building_id":"building:map:osm_way_1173057050","geometry_role":"mapped_building_outline","geometry_status":"derived_footprint","height_m":22.2,"height_source":"osm:building:levels × assumed storey","levels":6.0,"measured_height":false,"min_height_m":0.0,"name":"电子与光学工程学院、柔性材料（未来技术）学院","search_building_id":null,"source_url":"https://www.openstreetmap.org/way/1173057050"},"type":"Feature"},{"geometry":{"coordinates":[[[-199.854,76.706],[-189.675,60.107],[-126.625,96.712],[-137.057,114.26],[-199.854,76.706]]],"type":"Polygon"},"id":"osm_way_1173057051","properties":{"asset_id":"osm_way_1173057051","base_z_m":0.0,"building_id":"building:map:osm_way_1173057051","geometry_role":"mapped_building_outline","geometry_status":"derived_footprint","height_m":22.2,"height_source":"osm:building:levels × assumed storey","levels":6.0,"measured_height":false,"min_height_m":0.0,"name":"自动化学院、人工智能学院","search_building_id":null,"source_url":"https://www.openstreetmap.org/way/1173057051"},"type":"Feature"},{"geometry":{"coordinates":[[[-102.587,110.106],[-66.579,130.28],[-76.267,146.887],[-112.043,126.95],[-102.587,110.106]]],"type":"Polygon"},"id":"osm_way_1173057052","properties":{"asset_id":"osm_way_1173057052","base_z_m":0.0,"building_id":"building:map:osm_way_1173057052","geometry_role":"mapped_building_outline","geometry_status":"derived_footprint","height_m":22.2,"height_source":"osm:building:levels × assumed storey","levels":6.0,"measured_height":false,"min_height_m":0.0,"name":"地理与生物信息学院","search_building_id":null,"source_url":"https://www.openstreetmap.org/way/1173057052"},"type":"Feature"},{"geometry":{"coordinates":[[[-226.639,121.012],[-216.47,104.413],[-153.42,141.018],[-163.842,158.566],[-226.639,121.012]]],"type":"Polygon"},"id":"osm_way_1173057053","properties":{"asset_id":"osm_way_1173057053","base_z_m":0.0,"building_id":"building:map:osm_way_1173057053","geometry_role":"mapped_building_outline","geometry_status":"derived_footprint","height_m":22.2,"height_source":"osm:building:levels × assumed storey","levels":6.0,"measured_height":false,"min_height_m":0.0,"name":"集成电路科学与工程学院","search_building_id":null,"source_url":"https://www.openstreetmap.org/way/1173057053"},"type":"Feature"},{"geometry":{"coordinates":[[[-130.788,154.908],[-84.164,181.028],[-90.741,192.056],[-97.181,188.459],[-100.648,193.909],[-140.235,171.753],[-130.788,154.908]]],"type":"Polygon"},"id":"osm_way_1173057054","properties":{"asset_id":"osm_way_1173057054","base_z_m":0.0,"building_id":"building:map:osm_way_1173057054","geometry_role":"mapped_building_outline","geometry_status":"derived_footprint","height_m":22.2,"height_source":"osm:building:levels × assumed storey","levels":6.0,"measured_height":false,"min_height_m":0.0,"name":"工程实验教学部","search_building_id":null,"source_url":"https://www.openstreetmap.org/way/1173057054"},"type":"Feature"},{"geometry":{"coordinates":[[[-214.541,191.998],[-204.221,173.849],[-158.113,201.401],[-136.935,263.377],[-164.874,310.457],[-182.881,300.309],[-178.857,293.227],[-158.753,257.83],[-164.147,242.761],[-183.777,249.475],[-189.752,233.664],[-169.882,226.71],[-174.582,213.451],[-176.765,214.121],[-180.034,212.211],[-214.541,191.998]]],"type":"Polygon"},"id":"osm_way_1173057055","properties":{"asset_id":"osm_way_1173057055","base_z_m":0.0,"building_id":"building:map:osm_way_1173057055","geometry_role":"mapped_building_outline","geometry_status":"derived_footprint","height_m":22.2,"height_source":"osm:building:levels × assumed storey","levels":6.0,"measured_height":false,"min_height_m":0.0,"name":"计算机学院、软件学院、网络空间安全学院","search_building_id":null,"source_url":"https://www.openstreetmap.org/way/1173057055"},"type":"Feature"},{"geometry":{"coordinates":[[[-45.271,271.646],[-81.009,251.177],[-88.57,264.429],[-35.324,296.567],[-45.148,312.839],[-113.405,272.459],[-86.342,225.829],[-34.925,255.217],[-45.271,271.646]]],"type":"Polygon"},"id":"osm_way_1173057056","properties":{"asset_id":"osm_way_1173057056","base_z_m":0.0,"building_id":"building:map:osm_way_1173057056","geometry_role":"mapped_building_outline","geometry_status":"derived_footprint","height_m":22.2,"height_source":"osm:building:levels × assumed storey","levels":6.0,"measured_height":false,"min_height_m":0.0,"name":"南京邮电大学-文科楼","search_building_id":null,"source_url":"https://www.openstreetmap.org/way/1173057056"},"type":"Feature"},{"geometry":{"coordinates":[[[-151.964,348.651],[-124.293,302.875],[-106.776,313.502],[-104.542,309.46],[-58.529,335.935],[-87.74,387.063],[-102.393,378.294],[-107.994,388.021],[-149.351,364.036],[-147.856,361.19],[-152.746,358.585],[-148.271,350.636],[-151.964,348.651]],[[-83.796,344.177],[-116.704,325.177],[-132.204,352.023],[-99.296,371.023],[-83.796,344.177]]],"type":"Polygon"},"id":"osm_way_1173059720","properties":{"asset_id":"osm_way_1173059720","base_z_m":0.0,"building_id":"building:map:osm_way_1173059720","geometry_role":"plan_outline_with_courtyards","geometry_status":"derived_footprint","height_m":22.2,"height_source":"osm:building:levels × assumed storey","levels":6.0,"measured_height":false,"min_height_m":0.0,"name":"材料科学与工程学院-新大楼","search_building_id":null,"source_url":"https://www.openstreetmap.org/way/1173059720"},"type":"Feature"},{"geometry":{"coordinates":[[[-111.728,525.779],[-108.319,519.884],[-115.018,516.049],[-107.753,503.48],[-113.611,500.114],[-92.466,463.515],[-86.0,467.213],[-78.462,454.172],[16.912,508.79],[-22.466,576.904],[-111.728,525.779]]],"type":"Polygon"},"id":"osm_way_1281082570","properties":{"asset_id":"osm_way_1281082570","base_z_m":0.0,"building_id":"building:map:osm_way_1281082570","geometry_role":"mapped_building_outline","geometry_status":"derived_footprint","height_m":19.8,"height_source":"osm:building:levels × assumed storey","levels":4.0,"measured_height":false,"min_height_m":0.0,"name":"新体育馆","search_building_id":null,"source_url":"https://www.openstreetmap.org/way/1281082570"},"type":"Feature"},{"geometry":{"coordinates":[[[331.583,-485.545],[328.043,-485.553],[320.664,-485.685],[330.899,-513.273],[335.906,-512.973],[338.57,-513.635],[338.612,-517.538],[339.477,-518.399],[340.671,-518.677],[341.77,-518.358],[342.567,-517.534],[342.497,-513.598],[346.649,-513.524],[346.8,-521.961],[350.216,-521.9],[350.124,-516.778],[352.181,-516.741],[352.192,-517.362],[352.853,-517.35],[352.897,-519.811],[364.098,-519.611],[363.733,-499.21],[360.694,-499.265],[360.44,-485.029],[331.583,-485.545]]],"type":"Polygon"},"id":"osm_way_1390009973","properties":{"asset_id":"osm_way_1390009973","base_z_m":0.0,"building_id":"building:map:osm_way_1390009973","geometry_role":"mapped_building_outline","geometry_status":"derived_footprint","height_m":12.6,"height_source":"osm:building:levels × assumed storey","levels":3.0,"measured_height":false,"min_height_m":0.0,"name":"南邮仙林一食堂","search_building_id":null,"source_url":"https://www.openstreetmap.org/way/1390009973"},"type":"Feature"},{"geometry":{"coordinates":[[[337.741,-444.61],[337.25,-444.63],[326.964,-444.803],[326.849,-438.328],[321.885,-438.417],[321.859,-436.964],[301.354,-437.331],[319.057,-485.581],[328.043,-485.553],[331.583,-485.545],[328.484,-483.305],[325.886,-480.512],[323.892,-477.254],[322.582,-473.673],[322.005,-469.901],[322.224,-465.816],[323.305,-461.87],[325.204,-458.232],[327.828,-455.08],[331.058,-452.549],[330.898,-447.805],[337.776,-447.626],[337.741,-444.61]]],"type":"Polygon"},"id":"osm_way_1390009974","properties":{"asset_id":"osm_way_1390009974","base_z_m":0.0,"building_id":"building:map:osm_way_1390009974","geometry_role":"mapped_building_outline","geometry_status":"derived_footprint","height_m":12.6,"height_source":"osm:building:levels × assumed storey","levels":3.0,"measured_height":false,"min_height_m":0.0,"name":"南邮仙林一食堂","search_building_id":null,"source_url":"https://www.openstreetmap.org/way/1390009974"},"type":"Feature"},{"geometry":{"coordinates":[[[361.881,-443.756],[359.929,-443.836],[359.939,-439.144],[342.691,-439.519],[342.664,-438.012],[337.096,-438.111],[337.25,-444.63],[337.741,-444.61],[337.776,-447.626],[330.898,-447.805],[331.058,-452.549],[327.828,-455.08],[325.204,-458.232],[323.305,-461.87],[322.224,-465.816],[322.005,-469.901],[322.582,-473.673],[323.892,-477.254],[325.886,-480.512],[328.484,-483.305],[331.583,-485.545],[360.44,-485.029],[362.686,-484.989],[362.527,-476.141],[361.197,-476.165],[363.447,-473.729],[365.114,-470.882],[366.143,-467.736],[366.462,-464.447],[366.062,-461.072],[364.919,-457.865],[363.093,-454.992],[360.68,-452.584],[362.105,-452.558],[361.881,-443.756]]],"type":"Polygon"},"id":"osm_way_1390009975","properties":{"asset_id":"osm_way_1390009975","base_z_m":0.0,"building_id":"building:map:osm_way_1390009975","geometry_role":"mapped_building_outline","geometry_status":"derived_footprint","height_m":12.6,"height_source":"osm:building:levels × assumed storey","levels":3.0,"measured_height":false,"min_height_m":0.0,"name":"南邮仙林一食堂","search_building_id":null,"source_url":"https://www.openstreetmap.org/way/1390009975"},"type":"Feature"},{"geometry":{"coordinates":[[[105.595,-623.608],[106.015,-643.941],[156.365,-643.329],[156.012,-622.551],[105.595,-623.608]]],"type":"Polygon"},"id":"osm_way_1454085437","properties":{"asset_id":"osm_way_1454085437","base_z_m":0.0,"building_id":"building:map:osm_way_1454085437","geometry_role":"mapped_building_outline","geometry_status":"derived_footprint","height_m":18.0,"height_source":"osm:height","levels":5.0,"measured_height":false,"min_height_m":17.8,"name":"仙林南门","search_building_id":null,"source_url":"https://www.openstreetmap.org/way/1454085437"},"type":"Feature"},{"geometry":{"coordinates":[[[-4.5,-448.168],[-72.077,-449.785],[-71.643,-463.519],[-71.151,-484.682],[-70.809,-499.083],[-14.388,-497.587],[-10.245,-497.513],[45.985,-496.398],[50.325,-496.231],[102.702,-495.04],[101.618,-448.667],[101.38,-438.49],[44.597,-439.815],[45.039,-458.739],[-3.97,-459.881],[-4.5,-448.168]],[[-58.634,-485.339],[-59.156,-462.345],[-20.166,-461.461],[-19.644,-484.455],[-58.634,-485.339]],[[61.932,-482.103],[61.275,-453.11],[88.268,-452.497],[88.925,-481.49],[61.932,-482.103]]],"type":"Polygon"},"id":"osm_way_155434036","properties":{"asset_id":"osm_way_155434036","base_z_m":0.0,"building_id":"building:map:osm_way_155434036","geometry_role":"plan_outline_with_courtyards","geometry_status":"derived_footprint","height_m":18.5,"height_source":"Approximate 3.7m storey height; height unmeasured","levels":5.0,"measured_height":false,"min_height_m":0.0,"name":"教3","search_building_id":"building-a1c72817545eb5fac453","source_url":"https://www.openstreetmap.org/way/155434036"},"type":"Feature"},{"geometry":{"coordinates":[[[51.026,-642.217],[51.739,-662.556],[106.667,-660.876],[106.413,-652.495],[106.015,-643.941],[105.595,-623.608],[105.107,-609.542],[104.993,-606.328],[49.834,-608.234],[49.933,-611.138],[50.71,-633.505],[51.026,-642.217]],[[88.89,-646.213],[59.906,-647.174],[59.11,-623.187],[88.094,-622.226],[88.89,-646.213]]],"type":"Polygon"},"id":"osm_way_223699451","properties":{"asset_id":"osm_way_223699451","base_z_m":0.0,"building_id":"building:map:osm_way_223699451","geometry_role":"plan_outline_with_courtyards","geometry_status":"derived_footprint","height_m":18.5,"height_source":"Five floors confirmed by local evacuation plans; 18.5 m body height is the current photo/plan reconstruction, with storey height inferred, not measured.","levels":5.0,"measured_height":false,"min_height_m":0.0,"name":"教1","search_building_id":"building-a064affcc7dfa4184db2","source_url":"https://www.openstreetmap.org/way/223699451"},"type":"Feature"},{"geometry":{"coordinates":[[[-5.516,-351.109],[-72.92,-352.346],[-72.714,-363.855],[-72.223,-390.319],[-71.994,-403.114],[-4.968,-401.884],[-5.436,-376.195],[41.622,-375.321],[42.183,-405.666],[44.882,-405.618],[99.311,-404.612],[98.967,-385.897],[98.463,-358.767],[98.292,-349.198],[41.448,-350.248],[-5.516,-351.109]],[[56.271,-391.676],[55.734,-363.681],[84.729,-363.124],[85.266,-391.119],[56.271,-391.676]],[[-57.947,-390.362],[-58.446,-364.367],[-20.453,-363.638],[-19.954,-389.633],[-57.947,-390.362]]],"type":"Polygon"},"id":"osm_way_223699452","properties":{"asset_id":"osm_way_223699452","base_z_m":0.0,"building_id":"building:map:osm_way_223699452","geometry_role":"plan_outline_with_courtyards","geometry_status":"derived_footprint","height_m":18.5,"height_source":"Approximate 3.7m storey height; height unmeasured","levels":5.0,"measured_height":false,"min_height_m":0.0,"name":"教4","search_building_id":"building-b04baa9765764dff30a8","source_url":"https://www.openstreetmap.org/way/223699452"},"type":"Feature"},{"geometry":{"coordinates":[[[-8.861,-256.354],[-76.416,-257.527],[-76.09,-271.041],[-75.411,-299.022],[-75.189,-311.44],[-15.797,-310.368],[-13.891,-310.334],[-11.277,-310.298],[3.152,-310.096],[29.093,-309.643],[43.833,-309.391],[43.629,-295.321],[43.568,-290.885],[43.404,-279.066],[-8.615,-279.618],[-8.547,-274.449],[-8.861,-256.354]],[[-24.144,-296.942],[-61.137,-297.653],[-61.656,-270.658],[-24.663,-269.947],[-24.144,-296.942]]],"type":"Polygon"},"id":"osm_way_223699454","properties":{"asset_id":"osm_way_223699454","base_z_m":0.0,"building_id":"building:map:osm_way_223699454","geometry_role":"plan_outline_with_courtyards","geometry_status":"derived_footprint","height_m":22.2,"height_source":"osm:building:levels × assumed storey","levels":6.0,"measured_height":false,"min_height_m":0.0,"name":"教5","search_building_id":null,"source_url":"https://www.openstreetmap.org/way/223699454"},"type":"Feature"},{"geometry":{"coordinates":[[[-14.122,-530.444],[-68.46,-531.781],[-68.087,-546.869],[-67.726,-570.763],[-67.347,-587.27],[-1.193,-585.733],[-1.762,-561.266],[45.756,-560.151],[46.435,-589.175],[103.634,-587.831],[103.145,-567.344],[102.571,-542.633],[102.216,-527.534],[51.151,-528.746],[46.883,-528.667],[-10.217,-530.23],[-14.122,-530.444]],[[-56.877,-573.127],[-57.513,-545.135],[-19.523,-544.273],[-18.887,-572.265],[-56.877,-573.127]],[[62.355,-573.814],[61.652,-542.822],[89.645,-542.186],[90.348,-573.178],[62.355,-573.814]]],"type":"Polygon"},"id":"osm_way_223699456","properties":{"asset_id":"osm_way_223699456","base_z_m":0.0,"building_id":"building:map:osm_way_223699456","geometry_role":"plan_outline_with_courtyards","geometry_status":"derived_footprint","height_m":18.5,"height_source":"Approximate 3.7m storey height; height unmeasured","levels":5.0,"measured_height":false,"min_height_m":0.0,"name":"教2","search_building_id":"building-f738015d8236f0af54ff","source_url":"https://www.openstreetmap.org/way/223699456"},"type":"Feature"},{"geometry":{"coordinates":[[[378.347,40.594],[378.725,30.042],[414.072,30.675],[414.068,33.515],[422.429,33.653],[422.289,43.034],[404.15,42.875],[404.212,40.991],[378.347,40.594]]],"type":"Polygon"},"id":"osm_way_223859783","properties":{"asset_id":"osm_way_223859783","base_z_m":0.0,"building_id":"building:map:osm_way_223859783","geometry_role":"mapped_building_outline","geometry_status":"derived_footprint","height_m":19.2,"height_source":"osm:building:levels × assumed storey","levels":6.0,"measured_height":false,"min_height_m":0.0,"name":"19","search_building_id":null,"source_url":"https://www.openstreetmap.org/way/223859783"},"type":"Feature"},{"geometry":{"coordinates":[[[281.223,-56.159],[281.663,-91.286],[282.183,-125.126],[282.719,-164.012],[291.297,-163.892],[296.299,-163.824],[324.431,-163.465],[323.741,-109.144],[323.674,-104.309],[322.9,-55.28],[296.081,-55.693],[290.647,-55.824],[281.223,-56.159]]],"type":"Polygon"},"id":"osm_way_223859784","properties":{"asset_id":"osm_way_223859784","base_z_m":0.0,"building_id":"building:map:osm_way_223859784","geometry_role":"mapped_building_outline","geometry_status":"derived_footprint","height_m":12.6,"height_source":"osm:building:levels × assumed storey","levels":3.0,"measured_height":false,"min_height_m":0.0,"name":"南邮仙林二食堂","search_building_id":null,"source_url":"https://www.openstreetmap.org/way/223859784"},"type":"Feature"},{"geometry":{"coordinates":[[[278.581,-187.033],[278.836,-198.629],[290.942,-198.368],[290.871,-203.915],[373.292,-202.184],[373.193,-196.641],[378.649,-196.665],[385.097,-196.683],[384.732,-184.744],[370.356,-185.279],[370.435,-189.681],[335.587,-190.304],[328.123,-190.438],[295.483,-191.022],[295.274,-186.767],[289.916,-186.941],[278.581,-187.033]]],"type":"Polygon"},"id":"osm_way_223859786","properties":{"asset_id":"osm_way_223859786","base_z_m":0.0,"building_id":"building:map:osm_way_223859786","geometry_role":"mapped_building_outline","geometry_status":"derived_footprint","height_m":19.2,"height_source":"osm:building:levels × assumed storey","levels":6.0,"measured_height":false,"min_height_m":0.0,"name":"12","search_building_id":null,"source_url":"https://www.openstreetmap.org/way/223859786"},"type":"Feature"},{"geometry":{"coordinates":[[[351.716,-218.619],[351.901,-228.453],[373.972,-228.047],[373.911,-224.599],[378.968,-224.497],[384.951,-224.39],[384.762,-214.356],[378.978,-214.471],[367.239,-214.681],[367.314,-218.34],[351.716,-218.619]]],"type":"Polygon"},"id":"osm_way_223859787","properties":{"asset_id":"osm_way_223859787","base_z_m":0.0,"building_id":"building:map:osm_way_223859787","geometry_role":"mapped_building_outline","geometry_status":"derived_footprint","height_m":19.2,"height_source":"osm:building:levels × assumed storey","levels":6.0,"measured_height":false,"min_height_m":0.0,"name":"10","search_building_id":null,"source_url":"https://www.openstreetmap.org/way/223859787"},"type":"Feature"},{"geometry":{"coordinates":[[[309.736,43.658],[309.864,33.357],[323.217,33.529],[323.268,29.626],[360.836,30.11],[360.713,40.134],[344.284,39.918],[344.256,42.546],[336.81,42.446],[336.839,39.751],[323.609,39.581],[323.552,43.839],[318.314,43.767],[309.736,43.658]]],"type":"Polygon"},"id":"osm_way_223859790","properties":{"asset_id":"osm_way_223859790","base_z_m":0.0,"building_id":"building:map:osm_way_223859790","geometry_role":"mapped_building_outline","geometry_status":"derived_footprint","height_m":19.2,"height_source":"osm:building:levels × assumed storey","levels":6.0,"measured_height":false,"min_height_m":0.0,"name":"20","search_building_id":null,"source_url":"https://www.openstreetmap.org/way/223859790"},"type":"Feature"},{"geometry":{"coordinates":[[[371.856,9.324],[372.14,-2.871],[408.29,-2.212],[408.21,1.18],[417.557,1.569],[417.298,12.899],[413.948,12.828],[398.38,12.472],[398.444,9.933],[371.856,9.324]]],"type":"Polygon"},"id":"osm_way_223859791","properties":{"asset_id":"osm_way_223859791","base_z_m":0.0,"building_id":"building:map:osm_way_223859791","geometry_role":"mapped_building_outline","geometry_status":"derived_footprint","height_m":19.2,"height_source":"osm:building:levels × assumed storey","levels":6.0,"measured_height":false,"min_height_m":0.0,"name":"17","search_building_id":null,"source_url":"https://www.openstreetmap.org/way/223859791"},"type":"Feature"},{"geometry":{"coordinates":[[[301.435,-316.341],[301.651,-331.021],[313.72,-330.838],[313.781,-334.752],[374.658,-333.829],[374.59,-328.984],[386.641,-328.801],[386.435,-315.185],[371.223,-315.413],[371.33,-322.975],[341.189,-323.437],[333.724,-323.527],[317.801,-323.601],[317.764,-316.271],[301.435,-316.341]]],"type":"Polygon"},"id":"osm_way_223859792","properties":{"asset_id":"osm_way_223859792","base_z_m":0.0,"building_id":"building:map:osm_way_223859792","geometry_role":"mapped_building_outline","geometry_status":"derived_footprint","height_m":19.2,"height_source":"osm:building:levels × assumed storey","levels":6.0,"measured_height":false,"min_height_m":0.0,"name":"6","search_building_id":null,"source_url":"https://www.openstreetmap.org/way/223859792"},"type":"Feature"},{"geometry":{"coordinates":[[[279.245,-244.205],[279.462,-254.182],[291.48,-253.745],[291.662,-258.689],[327.631,-257.38],[327.208,-245.886],[299.079,-246.911],[298.951,-243.453],[279.245,-244.205]]],"type":"Polygon"},"id":"osm_way_223859794","properties":{"asset_id":"osm_way_223859794","base_z_m":0.0,"building_id":"building:map:osm_way_223859794","geometry_role":"mapped_building_outline","geometry_status":"derived_footprint","height_m":19.2,"height_source":"osm:building:levels × assumed storey","levels":6.0,"measured_height":false,"min_height_m":0.0,"name":"9","search_building_id":null,"source_url":"https://www.openstreetmap.org/way/223859794"},"type":"Feature"},{"geometry":{"coordinates":[[[339.288,-62.251],[339.43,-73.86],[350.84,-73.723],[350.888,-77.992],[391.108,-77.482],[391.069,-74.234],[393.938,-74.193],[400.893,-74.113],[400.749,-61.328],[391.085,-61.435],[381.628,-61.482],[381.639,-65.774],[371.879,-65.793],[367.957,-66.019],[359.609,-65.858],[359.474,-61.989],[348.301,-62.123],[339.288,-62.251]]],"type":"Polygon"},"id":"osm_way_223859796","properties":{"asset_id":"osm_way_223859796","base_z_m":0.0,"building_id":"building:map:osm_way_223859796","geometry_role":"mapped_building_outline","geometry_status":"derived_footprint","height_m":19.2,"height_source":"osm:building:levels × assumed storey","levels":6.0,"measured_height":false,"min_height_m":0.0,"name":"15","search_building_id":null,"source_url":"https://www.openstreetmap.org/way/223859796"},"type":"Feature"},{"geometry":{"coordinates":[[[279.631,-276.283],[279.885,-287.314],[284.555,-287.208],[291.698,-287.047],[291.793,-291.293],[333.328,-290.35],[340.754,-290.184],[374.259,-289.429],[374.144,-284.551],[385.617,-284.29],[385.389,-274.157],[379.709,-274.292],[368.905,-274.53],[369.002,-278.909],[297.443,-280.512],[297.341,-275.889],[279.631,-276.283]]],"type":"Polygon"},"id":"osm_way_223859797","properties":{"asset_id":"osm_way_223859797","base_z_m":0.0,"building_id":"building:map:osm_way_223859797","geometry_role":"mapped_building_outline","geometry_status":"derived_footprint","height_m":19.2,"height_source":"osm:building:levels × assumed storey","levels":6.0,"measured_height":false,"min_height_m":0.0,"name":"7","search_building_id":null,"source_url":"https://www.openstreetmap.org/way/223859797"},"type":"Feature"},{"geometry":{"coordinates":[[[301.872,-374.493],[302.137,-386.145],[311.034,-385.941],[311.167,-391.783],[336.445,-391.209],[336.166,-379.269],[318.634,-379.672],[318.506,-374.107],[301.872,-374.493]]],"type":"Polygon"},"id":"osm_way_223859798","properties":{"asset_id":"osm_way_223859798","base_z_m":0.0,"building_id":"building:map:osm_way_223859798","geometry_role":"mapped_building_outline","geometry_status":"derived_footprint","height_m":19.2,"height_source":"osm:building:levels × assumed storey","levels":6.0,"measured_height":false,"min_height_m":0.0,"name":"3","search_building_id":null,"source_url":"https://www.openstreetmap.org/way/223859798"},"type":"Feature"},{"geometry":{"coordinates":[[[359.674,-350.489],[359.947,-361.553],[373.298,-361.225],[373.194,-356.991],[387.621,-356.644],[387.346,-345.513],[366.419,-346.032],[366.524,-350.323],[359.674,-350.489]]],"type":"Polygon"},"id":"osm_way_223859801","properties":{"asset_id":"osm_way_223859801","base_z_m":0.0,"building_id":"building:map:osm_way_223859801","geometry_role":"mapped_building_outline","geometry_status":"derived_footprint","height_m":19.2,"height_source":"osm:building:levels × assumed storey","levels":6.0,"measured_height":false,"min_height_m":0.0,"name":"4","search_building_id":null,"source_url":"https://www.openstreetmap.org/way/223859801"},"type":"Feature"},{"geometry":{"coordinates":[[[-55.666,737.227],[-1.782,650.085],[6.635,654.949],[5.668,676.348],[0.223,697.911],[-7.124,712.397],[-18.519,726.8],[-31.369,737.661],[-43.166,746.012],[-55.666,737.227]]],"type":"Polygon"},"id":"osm_way_223859802","properties":{"asset_id":"osm_way_223859802","base_z_m":0.0,"building_id":"building:map:osm_way_223859802","geometry_role":"mapped_building_outline","geometry_status":"derived_footprint","height_m":10.5,"height_source":"osm:building:levels × assumed storey","levels":3.0,"measured_height":false,"min_height_m":0.0,"name":"看台","search_building_id":null,"source_url":"https://www.openstreetmap.org/way/223859802"},"type":"Feature"},{"geometry":{"coordinates":[[[475.063,400.259],[472.856,399.077],[471.296,398.195],[453.427,387.738],[451.642,386.707],[448.214,384.716],[449.14,383.103],[450.815,380.205],[453.716,375.277],[479.84,390.673],[483.064,385.651],[487.461,388.347],[483.161,394.969],[479.472,392.796],[475.063,400.259]]],"type":"Polygon"},"id":"osm_way_223859807","properties":{"asset_id":"osm_way_223859807","base_z_m":0.0,"building_id":"building:map:osm_way_223859807","geometry_role":"mapped_building_outline","geometry_status":"derived_footprint","height_m":4.0,"height_source":"inferred building typology","levels":1.0,"measured_height":false,"min_height_m":0.0,"name":"门卫","search_building_id":null,"source_url":"https://www.openstreetmap.org/way/223859807"},"type":"Feature"},{"geometry":{"coordinates":[[[352.532,-247.34],[352.609,-257.432],[375.222,-257.249],[375.189,-253.833],[379.682,-253.797],[385.307,-253.752],[385.229,-243.616],[379.311,-243.667],[368.231,-243.754],[368.265,-247.214],[352.532,-247.34]]],"type":"Polygon"},"id":"osm_way_223859809","properties":{"asset_id":"osm_way_223859809","base_z_m":0.0,"building_id":"building:map:osm_way_223859809","geometry_role":"mapped_building_outline","geometry_status":"derived_footprint","height_m":19.2,"height_source":"osm:building:levels × assumed storey","levels":6.0,"measured_height":false,"min_height_m":0.0,"name":"8","search_building_id":null,"source_url":"https://www.openstreetmap.org/way/223859809"},"type":"Feature"},{"geometry":{"coordinates":[[[146.27,-50.787],[146.895,-87.852],[147.477,-121.99],[148.147,-161.572],[176.267,-161.092],[188.75,-160.791],[218.141,-160.077],[217.048,-115.356],[216.457,-91.311],[215.429,-49.107],[188.331,-49.758],[174.038,-50.158],[146.27,-50.787]]],"type":"Polygon"},"id":"osm_way_223859810","properties":{"asset_id":"osm_way_223859810","base_z_m":0.0,"building_id":"building:map:osm_way_223859810","geometry_role":"mapped_building_outline","geometry_status":"derived_footprint","height_m":20.2,"height_source":"Native main-wing reconstruction datum; inferred, not measured","levels":5.0,"measured_height":false,"min_height_m":0.0,"name":"图书馆","search_building_id":null,"source_url":"https://www.openstreetmap.org/way/223859810"},"type":"Feature"},{"geometry":{"coordinates":[[[-104.8,-775.15],[-104.229,-796.556],[-97.34,-796.411],[-97.237,-801.145],[-91.811,-801.025],[-91.918,-796.081],[-46.922,-795.366],[-46.843,-800.333],[-41.124,-800.242],[-41.198,-795.031],[-24.098,-794.759],[-24.383,-774.047],[-104.8,-775.15]]],"type":"Polygon"},"id":"osm_way_223859811","properties":{"asset_id":"osm_way_223859811","base_z_m":0.0,"building_id":"building:map:osm_way_223859811","geometry_role":"mapped_building_outline","geometry_status":"derived_footprint","height_m":22.2,"height_source":"osm:building:levels × assumed storey","levels":6.0,"measured_height":false,"min_height_m":0.0,"name":"行政楼办公楼","search_building_id":null,"source_url":"https://www.openstreetmap.org/way/223859811"},"type":"Feature"},{"geometry":{"coordinates":[[[279.148,-216.102],[279.053,-226.052],[290.419,-225.594],[290.75,-230.368],[326.684,-229.226],[326.071,-218.224],[297.888,-218.906],[297.825,-215.38],[279.148,-216.102]]],"type":"Polygon"},"id":"osm_way_223859813","properties":{"asset_id":"osm_way_223859813","base_z_m":0.0,"building_id":"building:map:osm_way_223859813","geometry_role":"mapped_building_outline","geometry_status":"derived_footprint","height_m":19.2,"height_source":"osm:building:levels × assumed storey","levels":6.0,"measured_height":false,"min_height_m":0.0,"name":"11","search_building_id":null,"source_url":"https://www.openstreetmap.org/way/223859813"},"type":"Feature"},{"geometry":{"coordinates":[[[165.991,783.345],[186.02,751.141],[198.324,758.715],[203.552,761.947],[207.389,764.3],[187.388,796.505],[165.991,783.345]]],"type":"Polygon"},"id":"osm_way_223859814","properties":{"asset_id":"osm_way_223859814","base_z_m":0.0,"building_id":"building:map:osm_way_223859814","geometry_role":"mapped_building_outline","geometry_status":"derived_footprint","height_m":19.2,"height_source":"inferred building typology","levels":6.0,"measured_height":false,"min_height_m":0.0,"name":"","search_building_id":null,"source_url":"https://www.openstreetmap.org/way/223859814"},"type":"Feature"},{"geometry":{"coordinates":[[[339.562,-139.77],[339.921,-152.962],[350.398,-152.908],[350.429,-158.33],[359.669,-158.287],[363.595,-158.239],[378.571,-158.037],[378.475,-152.682],[389.797,-152.391],[389.562,-139.241],[374.17,-139.45],[374.253,-144.074],[356.51,-144.247],[356.428,-139.624],[339.562,-139.77]]],"type":"Polygon"},"id":"osm_way_223859815","properties":{"asset_id":"osm_way_223859815","base_z_m":0.0,"building_id":"building:map:osm_way_223859815","geometry_role":"mapped_building_outline","geometry_status":"derived_footprint","height_m":19.2,"height_source":"osm:building:levels × assumed storey","levels":6.0,"measured_height":false,"min_height_m":0.0,"name":"13","search_building_id":null,"source_url":"https://www.openstreetmap.org/way/223859815"},"type":"Feature"},{"geometry":{"coordinates":[[[339.78,-102.901],[339.621,-111.388],[352.779,-111.408],[352.856,-115.687],[383.995,-115.64],[383.941,-112.613],[389.255,-112.607],[393.691,-112.594],[393.635,-103.146],[384.283,-103.291],[384.072,-100.444],[370.566,-100.509],[370.665,-106.052],[352.863,-106.094],[352.814,-102.79],[339.78,-102.901]]],"type":"Polygon"},"id":"osm_way_223859816","properties":{"asset_id":"osm_way_223859816","base_z_m":0.0,"building_id":"building:map:osm_way_223859816","geometry_role":"mapped_building_outline","geometry_status":"derived_footprint","height_m":19.2,"height_source":"osm:building:levels × assumed storey","levels":6.0,"measured_height":false,"min_height_m":0.0,"name":"14","search_building_id":null,"source_url":"https://www.openstreetmap.org/way/223859816"},"type":"Feature"},{"geometry":{"coordinates":[[[-148.435,-191.604],[-147.699,-218.552],[-120.64,-217.814],[-121.367,-190.876],[-148.435,-191.604]]],"type":"Polygon"},"id":"osm_way_223859820","properties":{"asset_id":"osm_way_223859820","base_z_m":0.0,"building_id":"building:map:osm_way_223859820","geometry_role":"mapped_building_outline","geometry_status":"derived_footprint","height_m":7.6,"height_source":"inferred building typology","levels":2.0,"measured_height":false,"min_height_m":0.0,"name":"","search_building_id":null,"source_url":"https://www.openstreetmap.org/way/223859820"},"type":"Feature"},{"geometry":{"coordinates":[[[301.276,-345.457],[301.545,-356.754],[310.452,-356.539],[310.584,-362.337],[335.521,-361.735],[335.249,-350.195],[317.708,-350.62],[317.571,-345.066],[301.276,-345.457]]],"type":"Polygon"},"id":"osm_way_223859824","properties":{"asset_id":"osm_way_223859824","base_z_m":0.0,"building_id":"building:map:osm_way_223859824","geometry_role":"mapped_building_outline","geometry_status":"derived_footprint","height_m":19.2,"height_source":"osm:building:levels × assumed storey","levels":6.0,"measured_height":false,"min_height_m":0.0,"name":"5","search_building_id":null,"source_url":"https://www.openstreetmap.org/way/223859824"},"type":"Feature"},{"geometry":{"coordinates":[[[8.888,-754.787],[8.997,-760.33],[32.9,-759.903],[35.782,-753.741],[35.102,-743.671],[31.473,-739.2],[19.819,-739.419],[19.467,-720.283],[-26.036,-721.129],[-70.709,-721.96],[-70.07,-756.164],[-59.85,-755.97],[-59.559,-771.725],[-39.629,-771.358],[-39.918,-755.681],[8.888,-754.787]]],"type":"Polygon"},"id":"osm_way_223859826","properties":{"asset_id":"osm_way_223859826","base_z_m":0.0,"building_id":"building:map:osm_way_223859826","geometry_role":"mapped_building_outline","geometry_status":"derived_footprint","height_m":22.2,"height_source":"osm:building:levels × assumed storey","levels":6.0,"measured_height":false,"min_height_m":0.0,"name":"行政楼办公楼","search_building_id":null,"source_url":"https://www.openstreetmap.org/way/223859826"},"type":"Feature"},{"geometry":{"coordinates":[[[-167.269,684.038],[-163.499,659.54],[-158.636,638.266],[-154.777,630.915],[-173.063,620.552],[-161.163,602.198],[-145.362,615.845],[-132.598,601.411],[-107.037,580.695],[-97.125,590.155],[-114.805,618.265],[-117.032,629.305],[-121.796,640.809],[-127.525,649.779],[-134.755,657.713],[-142.454,663.919],[-156.152,687.342],[-167.269,684.038]]],"type":"Polygon"},"id":"osm_way_223859827","properties":{"asset_id":"osm_way_223859827","base_z_m":0.0,"building_id":"building:map:osm_way_223859827","geometry_role":"mapped_building_outline","geometry_status":"derived_footprint","height_m":10.5,"height_source":"osm:building:levels × assumed storey","levels":3.0,"measured_height":false,"min_height_m":0.0,"name":"主席台","search_building_id":null,"source_url":"https://www.openstreetmap.org/way/223859827"},"type":"Feature"},{"geometry":{"coordinates":[[[-168.12,-148.014],[-168.112,-160.613],[-138.983,-160.592],[-138.991,-147.993],[-168.12,-148.014]]],"type":"Polygon"},"id":"osm_way_223859828","properties":{"asset_id":"osm_way_223859828","base_z_m":0.0,"building_id":"building:map:osm_way_223859828","geometry_role":"mapped_building_outline","geometry_status":"derived_footprint","height_m":7.6,"height_source":"inferred building typology","levels":2.0,"measured_height":false,"min_height_m":0.0,"name":"","search_building_id":null,"source_url":"https://www.openstreetmap.org/way/223859828"},"type":"Feature"},{"geometry":{"coordinates":[[[302.771,-403.668],[303.083,-414.764],[312.359,-414.598],[312.219,-418.904],[334.698,-419.078],[339.106,-419.11],[342.524,-419.138],[384.913,-419.455],[384.711,-416.076],[393.656,-415.871],[393.552,-403.773],[380.352,-404.065],[380.412,-407.923],[320.291,-406.859],[320.382,-403.463],[302.771,-403.668]]],"type":"Polygon"},"id":"osm_way_223859829","properties":{"asset_id":"osm_way_223859829","base_z_m":0.0,"building_id":"building:map:osm_way_223859829","geometry_role":"mapped_building_outline","geometry_status":"derived_footprint","height_m":19.2,"height_source":"osm:building:levels × assumed storey","levels":6.0,"measured_height":false,"min_height_m":0.0,"name":"1","search_building_id":null,"source_url":"https://www.openstreetmap.org/way/223859829"},"type":"Feature"},{"geometry":{"coordinates":[[[360.174,-378.984],[360.543,-391.122],[381.911,-390.473],[381.768,-385.607],[393.146,-385.27],[392.818,-374.351],[387.525,-374.513],[367.729,-374.956],[367.817,-378.814],[360.174,-378.984]]],"type":"Polygon"},"id":"osm_way_223859832","properties":{"asset_id":"osm_way_223859832","base_z_m":0.0,"building_id":"building:map:osm_way_223859832","geometry_role":"mapped_building_outline","geometry_status":"derived_footprint","height_m":19.2,"height_source":"osm:building:levels × assumed storey","levels":6.0,"measured_height":false,"min_height_m":0.0,"name":"2","search_building_id":null,"source_url":"https://www.openstreetmap.org/way/223859832"},"type":"Feature"},{"geometry":{"coordinates":[[[302.992,9.644],[303.04,1.127],[316.801,1.218],[316.832,-3.129],[354.923,-2.88],[354.845,8.875],[330.797,8.711],[330.762,13.313],[313.462,13.192],[313.487,9.71],[302.992,9.644]]],"type":"Polygon"},"id":"osm_way_223859840","properties":{"asset_id":"osm_way_223859840","base_z_m":0.0,"building_id":"building:map:osm_way_223859840","geometry_role":"mapped_building_outline","geometry_status":"derived_footprint","height_m":19.2,"height_source":"osm:building:levels × assumed storey","levels":6.0,"measured_height":false,"min_height_m":0.0,"name":"18","search_building_id":null,"source_url":"https://www.openstreetmap.org/way/223859840"},"type":"Feature"},{"geometry":{"coordinates":[[[296.998,-23.58],[297.086,-31.686],[307.675,-31.574],[307.362,-36.748],[357.338,-36.519],[361.726,-36.474],[398.759,-36.11],[398.687,-32.629],[409.069,-32.565],[408.691,-18.841],[392.582,-19.03],[392.606,-23.521],[317.367,-24.048],[317.375,-19.777],[296.954,-20.076],[296.998,-23.58]]],"type":"Polygon"},"id":"osm_way_223859843","properties":{"asset_id":"osm_way_223859843","base_z_m":0.0,"building_id":"building:map:osm_way_223859843","geometry_role":"mapped_building_outline","geometry_status":"derived_footprint","height_m":19.2,"height_source":"osm:building:levels × assumed storey","levels":6.0,"measured_height":false,"min_height_m":0.0,"name":"16","search_building_id":null,"source_url":"https://www.openstreetmap.org/way/223859843"},"type":"Feature"},{"geometry":{"coordinates":[[[322.38,75.038],[322.556,65.204],[336.78,65.248],[336.936,61.225],[420.054,62.402],[419.99,66.028],[430.098,66.087],[429.911,76.487],[412.909,76.116],[413.015,73.378],[375.515,72.773],[372.571,72.72],[340.954,72.498],[340.906,75.159],[322.38,75.038]]],"type":"Polygon"},"id":"osm_way_223859846","properties":{"asset_id":"osm_way_223859846","base_z_m":0.0,"building_id":"building:map:osm_way_223859846","geometry_role":"mapped_building_outline","geometry_status":"derived_footprint","height_m":19.2,"height_source":"osm:building:levels × assumed storey","levels":6.0,"measured_height":false,"min_height_m":0.0,"name":"21 国防生楼","search_building_id":null,"source_url":"https://www.openstreetmap.org/way/223859846"},"type":"Feature"},{"geometry":{"coordinates":[[[486.478,353.172],[494.451,340.139],[512.118,350.826],[504.144,363.87],[486.478,353.172]]],"type":"Polygon"},"id":"osm_way_223859852","properties":{"asset_id":"osm_way_223859852","base_z_m":0.0,"building_id":"building:map:osm_way_223859852","geometry_role":"mapped_building_outline","geometry_status":"derived_footprint","height_m":4.0,"height_source":"inferred building typology","levels":1.0,"measured_height":false,"min_height_m":0.0,"name":"收发室","search_building_id":null,"source_url":"https://www.openstreetmap.org/way/223859852"},"type":"Feature"},{"geometry":{"coordinates":[[[65.889,478.656],[72.818,467.534],[73.809,465.932],[83.197,450.861],[80.834,449.411],[84.828,442.994],[88.91,436.435],[95.034,440.215],[98.694,442.466],[132.05,463.048],[144.728,470.86],[151.644,475.254],[144.093,487.918],[125.366,476.315],[120.325,473.185],[102.756,501.397],[97.501,498.12],[82.958,489.031],[77.363,485.737],[70.781,481.671],[65.889,478.656]]],"type":"Polygon"},"id":"osm_way_223944205","properties":{"asset_id":"osm_way_223944205","base_z_m":0.0,"building_id":"building:map:osm_way_223944205","geometry_role":"mapped_building_outline","geometry_status":"derived_footprint","height_m":14.1,"height_source":"inferred building typology","levels":3.0,"measured_height":false,"min_height_m":0.0,"name":"青春剧场","search_building_id":null,"source_url":"https://www.openstreetmap.org/way/223944205"},"type":"Feature"},{"geometry":{"coordinates":[[[20.846,585.974],[66.168,613.003],[70.778,605.377],[22.726,576.925],[29.075,565.981],[31.081,562.534],[44.053,540.196],[53.923,546.118],[57.229,548.095],[93.845,570.055],[97.721,572.387],[102.829,575.451],[81.622,610.728],[75.843,620.341],[69.812,630.381],[20.746,601.056],[20.846,585.974]]],"type":"Polygon"},"id":"osm_way_223944208","properties":{"asset_id":"osm_way_223944208","base_z_m":0.0,"building_id":"building:map:osm_way_223944208","geometry_role":"mapped_building_outline","geometry_status":"derived_footprint","height_m":22.13,"height_source":"photo-proportioned 22m hall facade using mapped 42.47m width; ridge +0.13m, unmeasured","levels":2.0,"measured_height":false,"min_height_m":0.0,"name":"体育馆（旧馆）","search_building_id":null,"source_url":"https://www.openstreetmap.org/way/223944208"},"type":"Feature"},{"geometry":{"coordinates":[[[96.87,421.982],[105.445,408.005],[128.985,422.301],[136.646,409.794],[164.312,426.604],[156.029,440.108],[167.616,447.147],[159.469,460.432],[153.317,456.607],[144.728,470.86],[132.05,463.048],[143.33,444.539],[109.837,424.188],[98.694,442.466],[95.034,440.215],[103.772,426.075],[96.87,421.982]]],"type":"Polygon"},"id":"osm_way_223944209","properties":{"asset_id":"osm_way_223944209","base_z_m":0.0,"building_id":"building:map:osm_way_223944209","geometry_role":"mapped_building_outline","geometry_status":"derived_footprint","height_m":14.1,"height_source":"inferred building typology","levels":3.0,"measured_height":false,"min_height_m":0.0,"name":"大学生活动中心","search_building_id":null,"source_url":"https://www.openstreetmap.org/way/223944209"},"type":"Feature"},{"geometry":{"coordinates":[[[230.828,566.306],[239.11,552.347],[241.28,548.692],[252.861,529.214],[246.332,525.359],[259.757,503.052],[266.183,506.838],[276.08,490.168],[279.067,485.153],[288.642,469.11],[299.99,475.823],[302.614,477.379],[312.916,483.463],[305.901,495.227],[312.616,499.196],[318.892,502.89],[330.97,509.961],[316.545,534.368],[322.757,538.006],[308.293,562.469],[302.287,558.956],[288.378,582.475],[278.225,576.526],[270.771,572.167],[262.14,567.11],[254.432,580.137],[244.689,574.428],[240.262,571.832],[230.828,566.306]]],"type":"Polygon"},"id":"osm_way_224896131","properties":{"asset_id":"osm_way_224896131","base_z_m":0.0,"building_id":"building:map:osm_way_224896131","geometry_role":"mapped_building_outline","geometry_status":"derived_footprint","height_m":12.6,"height_source":"inferred building typology","levels":3.0,"measured_height":false,"min_height_m":0.0,"name":"南邮仙林三食堂","search_building_id":null,"source_url":"https://www.openstreetmap.org/way/224896131"},"type":"Feature"},{"geometry":{"coordinates":[[[110.232,-717.763],[110.257,-721.788],[108.039,-721.806],[108.051,-724.024],[110.118,-724.02],[110.132,-728.012],[116.834,-727.981],[116.81,-724.499],[120.5,-724.489],[120.477,-721.04],[117.107,-721.056],[117.095,-717.729],[112.328,-717.758],[110.232,-717.763]]],"type":"Polygon"},"id":"osm_way_224938858","properties":{"asset_id":"osm_way_224938858","base_z_m":0.0,"building_id":"building:map:osm_way_224938858","geometry_role":"mapped_building_outline","geometry_status":"derived_footprint","height_m":4.0,"height_source":"inferred building typology","levels":1.0,"measured_height":false,"min_height_m":0.0,"name":"门卫","search_building_id":null,"source_url":"https://www.openstreetmap.org/way/224938858"},"type":"Feature"},{"geometry":{"coordinates":[[[152.337,-720.06],[152.424,-723.874],[156.774,-723.774],[156.842,-727.044],[162.881,-726.903],[162.809,-723.388],[165.328,-723.332],[165.262,-720.672],[162.95,-720.724],[162.842,-716.279],[156.558,-716.413],[156.64,-719.961],[152.337,-720.06]]],"type":"Polygon"},"id":"osm_way_224938894","properties":{"asset_id":"osm_way_224938894","base_z_m":0.0,"building_id":"building:map:osm_way_224938894","geometry_role":"mapped_building_outline","geometry_status":"derived_footprint","height_m":4.0,"height_source":"inferred building typology","levels":1.0,"measured_height":false,"min_height_m":0.0,"name":"门卫","search_building_id":null,"source_url":"https://www.openstreetmap.org/way/224938894"},"type":"Feature"},{"geometry":{"coordinates":[[[-187.673,-129.786],[-187.489,-140.097],[-183.488,-140.048],[-180.299,-139.968],[-180.456,-131.165],[-180.483,-129.657],[-187.673,-129.786]]],"type":"Polygon"},"id":"osm_way_224940517","properties":{"asset_id":"osm_way_224940517","base_z_m":0.0,"building_id":"building:map:osm_way_224940517","geometry_role":"mapped_building_outline","geometry_status":"derived_footprint","height_m":4.0,"height_source":"inferred building typology","levels":1.0,"measured_height":false,"min_height_m":0.0,"name":"","search_building_id":null,"source_url":"https://www.openstreetmap.org/way/224940517"},"type":"Feature"},{"geometry":{"coordinates":[[[318.536,193.241],[318.989,174.794],[325.528,174.956],[325.075,193.403],[318.536,193.241]]],"type":"Polygon"},"id":"osm_way_224940881","properties":{"asset_id":"osm_way_224940881","base_z_m":0.0,"building_id":"building:map:osm_way_224940881","geometry_role":"mapped_building_outline","geometry_status":"derived_footprint","height_m":7.2,"height_source":"inferred building typology","levels":2.0,"measured_height":false,"min_height_m":0.0,"name":"主席台","search_building_id":null,"source_url":"https://www.openstreetmap.org/way/224940881"},"type":"Feature"},{"geometry":{"coordinates":[[[221.09,-631.591],[220.13,-620.661],[214.628,-620.715],[207.126,-620.85],[205.783,-620.208],[202.065,-615.483],[197.25,-611.788],[191.396,-610.129],[186.155,-610.012],[180.348,-611.513],[175.416,-613.864],[170.478,-618.067],[167.924,-619.843],[164.202,-622.327],[156.012,-622.551],[156.365,-643.329],[168.903,-642.938],[176.904,-650.625],[187.703,-653.305],[198.401,-650.241],[206.121,-642.273],[221.317,-641.091],[221.09,-631.591]]],"type":"Polygon"},"id":"osm_way_224950590","properties":{"asset_id":"osm_way_224950590","base_z_m":0.0,"building_id":"building:map:osm_way_224950590","geometry_role":"mapped_building_outline","geometry_status":"derived_footprint","height_m":23.51,"height_source":"Photograph-proportion reconstruction; upper canopy and raised coral roof box, not surveyed.","levels":6.0,"measured_height":false,"min_height_m":0.0,"name":"圆楼","search_building_id":null,"source_url":"https://www.openstreetmap.org/way/224950590"},"type":"Feature"},{"geometry":{"coordinates":[[[-188.889,-102.369],[-180.785,-102.158],[-180.997,-93.455],[-189.111,-93.667],[-188.889,-102.369]]],"type":"Polygon"},"id":"osm_way_224953835","properties":{"asset_id":"osm_way_224953835","base_z_m":0.0,"building_id":"building:map:osm_way_224953835","geometry_role":"mapped_building_outline","geometry_status":"derived_footprint","height_m":4.0,"height_source":"inferred building typology","levels":1.0,"measured_height":false,"min_height_m":0.0,"name":"","search_building_id":null,"source_url":"https://www.openstreetmap.org/way/224953835"},"type":"Feature"},{"geometry":{"coordinates":[[[52.78,-504.217],[54.026,-527.474],[83.629,-525.892],[82.382,-502.635],[52.78,-504.217]]],"type":"Polygon"},"id":"osm_way_224954737","properties":{"asset_id":"osm_way_224954737","base_z_m":0.0,"building_id":"building:map:osm_way_224954737","geometry_role":"mapped_building_outline","geometry_status":"derived_footprint","height_m":7.6,"height_source":"inferred building typology","levels":2.0,"measured_height":false,"min_height_m":0.0,"name":"特大教室","search_building_id":null,"source_url":"https://www.openstreetmap.org/way/224954737"},"type":"Feature"},{"geometry":{"coordinates":[[[-14.388,-497.587],[-14.485,-500.062],[-14.728,-506.011],[-14.122,-530.444],[-10.217,-530.23],[-10.245,-497.513],[-14.388,-497.587]]],"type":"Polygon"},"id":"osm_way_224990427","properties":{"asset_id":"osm_way_224990427","base_z_m":0.0,"building_id":"building:map:osm_way_224990427","geometry_role":"mapped_building_outline","geometry_status":"derived_footprint","height_m":10.8,"height_source":"Current three-storey circulation reconstruction: top 10.8 m, clearance 3.8 m; inferred visual dimensions, not surveyed.","levels":3.0,"measured_height":false,"min_height_m":3.8,"name":"连廊","search_building_id":null,"source_url":"https://www.openstreetmap.org/way/224990427"},"type":"Feature"},{"geometry":{"coordinates":[[[45.985,-496.398],[46.883,-528.667],[51.151,-528.746],[50.44,-502.673],[50.325,-496.231],[45.985,-496.398]]],"type":"Polygon"},"id":"osm_way_224990428","properties":{"asset_id":"osm_way_224990428","base_z_m":0.0,"building_id":"building:map:osm_way_224990428","geometry_role":"mapped_building_outline","geometry_status":"derived_footprint","height_m":10.8,"height_source":"Current three-storey circulation reconstruction: top 10.8 m, clearance 3.8 m; inferred visual dimensions, not surveyed.","levels":3.0,"measured_height":false,"min_height_m":3.8,"name":"连廊","search_building_id":null,"source_url":"https://www.openstreetmap.org/way/224990428"},"type":"Feature"},{"geometry":{"coordinates":[[[41.231,-261.492],[41.349,-268.089],[48.869,-267.955],[48.751,-261.358],[41.231,-261.492]]],"type":"Polygon"},"id":"osm_way_224996787","properties":{"asset_id":"osm_way_224996787","base_z_m":0.0,"building_id":"building:map:osm_way_224996787","geometry_role":"mapped_building_outline","geometry_status":"derived_footprint","height_m":4.0,"height_source":"inferred building typology","levels":1.0,"measured_height":false,"min_height_m":0.0,"name":"","search_building_id":null,"source_url":"https://www.openstreetmap.org/way/224996787"},"type":"Feature"},{"geometry":{"coordinates":[[[320.575,59.29],[320.799,47.882],[335.245,48.174],[335.021,59.582],[320.575,59.29]]],"type":"Polygon"},"id":"osm_way_225092103","properties":{"asset_id":"osm_way_225092103","base_z_m":0.0,"building_id":"building:map:osm_way_225092103","geometry_role":"mapped_building_outline","geometry_status":"derived_footprint","height_m":4.0,"height_source":"inferred building typology","levels":1.0,"measured_height":false,"min_height_m":0.0,"name":"热水房","search_building_id":null,"source_url":"https://www.openstreetmap.org/way/225092103"},"type":"Feature"},{"geometry":{"coordinates":[[[-266.393,682.568],[-262.045,675.337],[-256.199,678.824],[-260.546,686.044],[-266.393,682.568]]],"type":"Polygon"},"id":"osm_way_225109136","properties":{"asset_id":"osm_way_225109136","base_z_m":0.0,"building_id":"building:map:osm_way_225109136","geometry_role":"mapped_building_outline","geometry_status":"derived_footprint","height_m":4.0,"height_source":"inferred building typology","levels":1.0,"measured_height":false,"min_height_m":0.0,"name":"门卫","search_building_id":null,"source_url":"https://www.openstreetmap.org/way/225109136"},"type":"Feature"},{"geometry":{"coordinates":[[[295.343,353.642],[301.256,343.932],[310.603,349.568],[313.317,345.102],[346.98,365.391],[348.419,363.032],[356.796,368.084],[355.21,370.695],[388.874,390.973],[386.18,395.406],[395.313,400.904],[389.692,410.131],[382.436,405.753],[376.833,402.381],[379.265,398.387],[315.766,360.119],[313.17,364.386],[295.343,353.642]]],"type":"Polygon"},"id":"osm_way_225198908","properties":{"asset_id":"osm_way_225198908","base_z_m":0.0,"building_id":"building:map:osm_way_225198908","geometry_role":"mapped_building_outline","geometry_status":"derived_footprint","height_m":19.2,"height_source":"osm:building:levels × assumed storey","levels":6.0,"measured_height":false,"min_height_m":0.0,"name":"22","search_building_id":null,"source_url":"https://www.openstreetmap.org/way/225198908"},"type":"Feature"},{"geometry":{"coordinates":[[[281.432,377.815],[286.845,369.117],[295.91,374.713],[298.184,371.061],[326.061,388.24],[322.757,393.538],[327.583,396.519],[324.464,401.532],[298.034,385.254],[296.78,387.273],[290.224,383.362],[284.821,379.905],[281.432,377.815]]],"type":"Polygon"},"id":"osm_way_225198909","properties":{"asset_id":"osm_way_225198909","base_z_m":0.0,"building_id":"building:map:osm_way_225198909","geometry_role":"mapped_building_outline","geometry_status":"derived_footprint","height_m":19.2,"height_source":"osm:building:levels × assumed storey","levels":6.0,"measured_height":false,"min_height_m":0.0,"name":"23","search_building_id":null,"source_url":"https://www.openstreetmap.org/way/225198909"},"type":"Feature"},{"geometry":{"coordinates":[[[335.696,408.343],[338.817,403.297],[342.542,405.582],[346.022,399.955],[375.15,417.822],[372.837,421.563],[379.905,425.893],[374.112,435.238],[365.625,430.029],[363.069,434.153],[365.739,435.787],[363.776,438.957],[361.078,437.301],[359.231,440.284],[354.694,437.508],[361.176,427.055],[362.576,424.773],[335.696,408.343]]],"type":"Polygon"},"id":"osm_way_225198910","properties":{"asset_id":"osm_way_225198910","base_z_m":0.0,"building_id":"building:map:osm_way_225198910","geometry_role":"mapped_building_outline","geometry_status":"derived_footprint","height_m":19.2,"height_source":"osm:building:levels × assumed storey","levels":6.0,"measured_height":false,"min_height_m":0.0,"name":"24","search_building_id":null,"source_url":"https://www.openstreetmap.org/way/225198910"},"type":"Feature"},{"geometry":{"coordinates":[[[266.419,401.314],[272.41,391.461],[276.34,393.894],[278.982,389.727],[275.182,387.407],[278.526,381.977],[282.13,384.193],[284.821,379.905],[290.224,383.362],[283.565,394.212],[312.27,411.506],[309.031,416.827],[313.149,419.319],[309.881,424.694],[285.266,409.869],[284.022,411.921],[266.419,401.314]]],"type":"Polygon"},"id":"osm_way_225198911","properties":{"asset_id":"osm_way_225198911","base_z_m":0.0,"building_id":"building:map:osm_way_225198911","geometry_role":"mapped_building_outline","geometry_status":"derived_footprint","height_m":19.2,"height_source":"osm:building:levels × assumed storey","levels":6.0,"measured_height":false,"min_height_m":0.0,"name":"25","search_building_id":null,"source_url":"https://www.openstreetmap.org/way/225198911"},"type":"Feature"},{"geometry":{"coordinates":[[[320.946,431.414],[324.048,426.346],[327.466,428.359],[331.007,423.032],[354.694,437.508],[359.231,440.284],[357.141,443.674],[365.5,448.615],[359.861,457.83],[345.015,448.814],[346.259,446.773],[320.946,431.414]]],"type":"Polygon"},"id":"osm_way_225198912","properties":{"asset_id":"osm_way_225198912","base_z_m":0.0,"building_id":"building:map:osm_way_225198912","geometry_role":"mapped_building_outline","geometry_status":"derived_footprint","height_m":19.2,"height_source":"osm:building:levels × assumed storey","levels":6.0,"measured_height":false,"min_height_m":0.0,"name":"26","search_building_id":null,"source_url":"https://www.openstreetmap.org/way/225198912"},"type":"Feature"},{"geometry":{"coordinates":[[[251.354,426.153],[256.979,416.716],[266.001,422.035],[268.23,418.293],[336.477,458.587],[334.287,462.263],[343.926,467.959],[338.448,477.144],[324.569,468.943],[326.408,465.86],[299.565,450.019],[293.447,446.404],[268.883,431.902],[266.859,435.304],[251.354,426.153]]],"type":"Polygon"},"id":"osm_way_225198913","properties":{"asset_id":"osm_way_225198913","base_z_m":0.0,"building_id":"building:map:osm_way_225198913","geometry_role":"mapped_building_outline","geometry_status":"derived_footprint","height_m":19.2,"height_source":"osm:building:levels × assumed storey","levels":6.0,"measured_height":false,"min_height_m":0.0,"name":"27","search_building_id":null,"source_url":"https://www.openstreetmap.org/way/225198913"},"type":"Feature"},{"geometry":{"coordinates":[[[418.852,426.235],[424.315,416.884],[433.358,422.114],[435.49,418.448],[472.503,439.862],[470.331,443.583],[473.9,445.643],[477.553,447.761],[479.823,449.077],[474.487,458.209],[459.25,449.396],[460.604,447.069],[437.754,433.85],[436.312,436.33],[427.671,431.329],[418.852,426.235]]],"type":"Polygon"},"id":"osm_way_225242507","properties":{"asset_id":"osm_way_225242507","base_z_m":0.0,"building_id":"building:map:osm_way_225242507","geometry_role":"mapped_building_outline","geometry_status":"derived_footprint","height_m":19.2,"height_source":"osm:building:levels × assumed storey","levels":6.0,"measured_height":false,"min_height_m":0.0,"name":"28","search_building_id":null,"source_url":"https://www.openstreetmap.org/way/225242507"},"type":"Feature"},{"geometry":{"coordinates":[[[404.351,451.163],[409.934,441.447],[419.202,446.737],[420.956,443.686],[449.948,460.22],[447.61,464.271],[451.469,466.469],[447.708,473.001],[422.594,458.676],[421.347,460.85],[414.722,457.116],[407.48,469.341],[405.865,472.074],[401.026,469.259],[403.287,465.251],[398.739,462.563],[401.555,457.634],[406.196,460.412],[409.881,454.412],[404.351,451.163]]],"type":"Polygon"},"id":"osm_way_225242509","properties":{"asset_id":"osm_way_225242509","base_z_m":0.0,"building_id":"building:map:osm_way_225242509","geometry_role":"mapped_building_outline","geometry_status":"derived_footprint","height_m":19.2,"height_source":"osm:building:levels × assumed storey","levels":6.0,"measured_height":false,"min_height_m":0.0,"name":"29","search_building_id":null,"source_url":"https://www.openstreetmap.org/way/225242509"},"type":"Feature"},{"geometry":{"coordinates":[[[456.282,475.983],[461.826,466.832],[472.164,473.029],[469.858,476.836],[478.31,481.9],[474.847,487.617],[476.911,488.851],[471.95,497.047],[474.07,498.316],[471.658,502.31],[469.445,500.973],[465.758,507.073],[461.416,504.467],[463.313,501.34],[470.675,489.183],[458.788,482.061],[460.82,478.703],[456.282,475.983]]],"type":"Polygon"},"id":"osm_way_225242511","properties":{"asset_id":"osm_way_225242511","base_z_m":0.0,"building_id":"building:map:osm_way_225242511","geometry_role":"mapped_building_outline","geometry_status":"derived_footprint","height_m":19.2,"height_source":"osm:building:levels × assumed storey","levels":6.0,"measured_height":false,"min_height_m":0.0,"name":"30","search_building_id":null,"source_url":"https://www.openstreetmap.org/way/225242511"},"type":"Feature"},{"geometry":{"coordinates":[[[389.961,475.737],[395.674,466.102],[401.026,469.259],[405.865,472.074],[407.48,469.341],[435.296,485.655],[432.464,490.451],[435.602,492.293],[432.225,497.988],[407.669,483.585],[406.559,485.462],[389.961,475.737]]],"type":"Polygon"},"id":"osm_way_225242513","properties":{"asset_id":"osm_way_225242513","base_z_m":0.0,"building_id":"building:map:osm_way_225242513","geometry_role":"mapped_building_outline","geometry_status":"derived_footprint","height_m":19.2,"height_source":"osm:building:levels × assumed storey","levels":6.0,"measured_height":false,"min_height_m":0.0,"name":"31","search_building_id":null,"source_url":"https://www.openstreetmap.org/way/225242513"},"type":"Feature"},{"geometry":{"coordinates":[[[447.721,504.443],[453.369,495.273],[463.313,501.34],[461.416,504.467],[465.758,507.073],[470.117,509.802],[464.547,518.852],[450.467,510.26],[452.324,507.254],[447.721,504.443]]],"type":"Polygon"},"id":"osm_way_225242515","properties":{"asset_id":"osm_way_225242515","base_z_m":0.0,"building_id":"building:map:osm_way_225242515","geometry_role":"mapped_building_outline","geometry_status":"derived_footprint","height_m":19.2,"height_source":"osm:building:levels × assumed storey","levels":6.0,"measured_height":false,"min_height_m":0.0,"name":"32","search_building_id":null,"source_url":"https://www.openstreetmap.org/way/225242515"},"type":"Feature"},{"geometry":{"coordinates":[[[382.382,504.182],[388.18,494.538],[396.893,499.729],[399.121,496.02],[450.065,526.379],[447.905,529.978],[456.516,535.112],[450.669,544.833],[436.474,536.372],[437.806,534.166],[420.343,523.75],[415.43,520.834],[399.825,511.526],[398.473,513.765],[382.382,504.182]]],"type":"Polygon"},"id":"osm_way_225242517","properties":{"asset_id":"osm_way_225242517","base_z_m":0.0,"building_id":"building:map:osm_way_225242517","geometry_role":"mapped_building_outline","geometry_status":"derived_footprint","height_m":19.2,"height_source":"osm:building:levels × assumed storey","levels":6.0,"measured_height":false,"min_height_m":0.0,"name":"33","search_building_id":null,"source_url":"https://www.openstreetmap.org/way/225242517"},"type":"Feature"},{"geometry":{"coordinates":[[[356.514,532.466],[362.716,522.385],[372.696,528.542],[374.676,524.939],[403.075,541.929],[408.182,545.048],[438.058,563.306],[435.672,566.913],[445.356,573.23],[438.97,582.51],[425.124,574.021],[427.518,570.027],[373.124,536.801],[370.74,540.795],[356.514,532.466]]],"type":"Polygon"},"id":"osm_way_225250615","properties":{"asset_id":"osm_way_225250615","base_z_m":0.0,"building_id":"building:map:osm_way_225250615","geometry_role":"mapped_building_outline","geometry_status":"derived_footprint","height_m":19.2,"height_source":"osm:building:levels × assumed storey","levels":6.0,"measured_height":false,"min_height_m":0.0,"name":"34","search_building_id":null,"source_url":"https://www.openstreetmap.org/way/225250615"},"type":"Feature"},{"geometry":{"coordinates":[[[387.016,587.99],[389.711,583.491],[392.709,585.275],[395.822,580.095],[423.933,596.791],[421.442,600.95],[429.988,606.017],[424.374,615.376],[420.999,613.564],[417.141,619.794],[419.96,621.519],[416.796,626.93],[413.949,625.138],[410.571,630.856],[406.267,628.272],[408.825,624.048],[416.79,610.915],[410.225,606.971],[412.521,603.153],[387.016,587.99]]],"type":"Polygon"},"id":"osm_way_225250617","properties":{"asset_id":"osm_way_225250617","base_z_m":0.0,"building_id":"building:map:osm_way_225250617","geometry_role":"mapped_building_outline","geometry_status":"derived_footprint","height_m":19.2,"height_source":"osm:building:levels × assumed storey","levels":6.0,"measured_height":false,"min_height_m":0.0,"name":"36","search_building_id":null,"source_url":"https://www.openstreetmap.org/way/225250617"},"type":"Feature"},{"geometry":{"coordinates":[[[319.611,589.3],[324.882,580.6],[329.533,583.345],[334.473,586.317],[337.303,581.676],[365.336,598.492],[362.458,603.243],[365.25,604.924],[362.594,609.312],[338.614,594.92],[336.046,599.155],[323.178,591.438],[319.611,589.3]]],"type":"Polygon"},"id":"osm_way_225250618","properties":{"asset_id":"osm_way_225250618","base_z_m":0.0,"building_id":"building:map:osm_way_225250618","geometry_role":"mapped_building_outline","geometry_status":"derived_footprint","height_m":19.2,"height_source":"osm:building:levels × assumed storey","levels":6.0,"measured_height":false,"min_height_m":0.0,"name":"37","search_building_id":null,"source_url":"https://www.openstreetmap.org/way/225250618"},"type":"Feature"},{"geometry":{"coordinates":[[[370.022,614.614],[372.901,609.852],[375.964,611.681],[379.232,606.294],[408.825,624.048],[406.267,628.272],[410.571,630.856],[414.232,633.051],[408.124,643.145],[392.464,633.759],[394.992,629.59],[370.022,614.614]]],"type":"Polygon"},"id":"osm_way_225250619","properties":{"asset_id":"osm_way_225250619","base_z_m":0.0,"building_id":"building:map:osm_way_225250619","geometry_role":"mapped_building_outline","geometry_status":"derived_footprint","height_m":19.2,"height_source":"osm:building:levels × assumed storey","levels":6.0,"measured_height":false,"min_height_m":0.0,"name":"38","search_building_id":null,"source_url":"https://www.openstreetmap.org/way/225250619"},"type":"Feature"},{"geometry":{"coordinates":[[[307.303,619.868],[313.156,610.301],[322.437,615.935],[324.382,612.776],[387.659,651.174],[385.685,654.411],[394.275,659.622],[388.519,669.023],[373.272,659.767],[374.954,657.024],[351.611,642.865],[346.625,639.837],[324.851,626.626],[323.12,629.456],[307.303,619.868]]],"type":"Polygon"},"id":"osm_way_225250620","properties":{"asset_id":"osm_way_225250620","base_z_m":0.0,"building_id":"building:map:osm_way_225250620","geometry_role":"mapped_building_outline","geometry_status":"derived_footprint","height_m":19.2,"height_source":"osm:building:levels × assumed storey","levels":6.0,"measured_height":false,"min_height_m":0.0,"name":"39","search_building_id":null,"source_url":"https://www.openstreetmap.org/way/225250620"},"type":"Feature"},{"geometry":{"coordinates":[[[328.788,573.838],[331.982,568.349],[336.588,571.005],[340.211,564.781],[335.624,562.126],[343.55,548.527],[352.836,553.883],[380.725,570.376],[377.436,575.884],[380.228,577.543],[377.718,581.745],[354.014,567.724],[351.649,571.685],[345.457,568.025],[337.303,581.676],[334.473,586.317],[329.533,583.345],[333.56,576.718],[328.788,573.838]]],"type":"Polygon"},"id":"osm_way_225251648","properties":{"asset_id":"osm_way_225251648","base_z_m":0.0,"building_id":"building:map:osm_way_225251648","geometry_role":"mapped_building_outline","geometry_status":"derived_footprint","height_m":19.2,"height_source":"osm:building:levels × assumed storey","levels":6.0,"measured_height":false,"min_height_m":0.0,"name":"35","search_building_id":null,"source_url":"https://www.openstreetmap.org/way/225251648"},"type":"Feature"},{"geometry":{"coordinates":[[[167.593,569.833],[173.983,559.256],[213.933,583.172],[222.992,588.591],[268.862,616.063],[262.559,626.498],[256.63,622.931],[254.237,626.881],[247.672,622.948],[250.065,618.988],[187.506,581.546],[185.143,585.441],[176.85,580.479],[179.116,576.727],[167.593,569.833]]],"type":"Polygon"},"id":"osm_way_225253706","properties":{"asset_id":"osm_way_225253706","base_z_m":0.0,"building_id":"building:map:osm_way_225253706","geometry_role":"mapped_building_outline","geometry_status":"derived_footprint","height_m":19.2,"height_source":"osm:building:levels × assumed storey","levels":6.0,"measured_height":false,"min_height_m":0.0,"name":"46","search_building_id":null,"source_url":"https://www.openstreetmap.org/way/225253706"},"type":"Feature"},{"geometry":{"coordinates":[[[158.17,584.781],[160.766,586.358],[164.023,581.026],[171.652,585.643],[168.628,590.58],[247.314,638.203],[254.237,626.881],[256.63,622.931],[262.559,626.498],[267.368,629.412],[264.344,634.349],[260.708,640.295],[257.927,644.837],[254.043,642.482],[248.161,652.082],[152.501,594.051],[158.17,584.781]]],"type":"Polygon"},"id":"osm_way_225253707","properties":{"asset_id":"osm_way_225253707","base_z_m":0.0,"building_id":"building:map:osm_way_225253707","geometry_role":"mapped_building_outline","geometry_status":"derived_footprint","height_m":19.2,"height_source":"osm:building:levels × assumed storey","levels":6.0,"measured_height":false,"min_height_m":0.0,"name":"47","search_building_id":null,"source_url":"https://www.openstreetmap.org/way/225253707"},"type":"Feature"},{"geometry":{"coordinates":[[[127.434,617.703],[133.222,608.113],[178.858,635.492],[187.3,640.556],[234.56,668.918],[228.997,678.123],[222.89,674.421],[220.392,678.502],[212.295,673.666],[214.523,669.968],[145.733,628.921],[143.739,632.224],[136.52,627.925],[138.65,624.392],[127.434,617.703]]],"type":"Polygon"},"id":"osm_way_225253711","properties":{"asset_id":"osm_way_225253711","base_z_m":0.0,"building_id":"building:map:osm_way_225253711","geometry_role":"mapped_building_outline","geometry_status":"derived_footprint","height_m":19.2,"height_source":"osm:building:levels × assumed storey","levels":6.0,"measured_height":false,"min_height_m":0.0,"name":"48","search_building_id":null,"source_url":"https://www.openstreetmap.org/way/225253711"},"type":"Feature"},{"geometry":{"coordinates":[[[112.56,643.012],[118.591,632.983],[213.699,689.639],[220.392,678.502],[222.89,674.421],[228.997,678.123],[233.218,680.65],[229.697,686.454],[226.342,691.984],[223.172,697.206],[219.577,695.046],[214.121,704.043],[112.56,643.012]]],"type":"Polygon"},"id":"osm_way_225253712","properties":{"asset_id":"osm_way_225253712","base_z_m":0.0,"building_id":"building:map:osm_way_225253712","geometry_role":"mapped_building_outline","geometry_status":"derived_footprint","height_m":19.2,"height_source":"osm:building:levels × assumed storey","levels":6.0,"measured_height":false,"min_height_m":0.0,"name":"49","search_building_id":null,"source_url":"https://www.openstreetmap.org/way/225253712"},"type":"Feature"},{"geometry":{"coordinates":[[[249.451,726.601],[250.992,723.812],[254.758,717.48],[265.028,723.242],[267.245,719.589],[326.953,755.438],[324.9,758.829],[335.069,764.933],[329.283,774.478],[314.043,765.322],[316.231,761.723],[292.97,747.765],[287.545,744.496],[267.188,732.276],[264.98,735.929],[249.451,726.601]]],"type":"Polygon"},"id":"osm_way_225255192","properties":{"asset_id":"osm_way_225255192","base_z_m":0.0,"building_id":"building:map:osm_way_225255192","geometry_role":"mapped_building_outline","geometry_status":"derived_footprint","height_m":19.2,"height_source":"osm:building:levels × assumed storey","levels":6.0,"measured_height":false,"min_height_m":0.0,"name":"45","search_building_id":null,"source_url":"https://www.openstreetmap.org/way/225255192"},"type":"Feature"},{"geometry":{"coordinates":[[[261.178,697.864],[266.568,688.855],[275.42,694.226],[277.744,690.419],[303.813,706.191],[301.091,710.645],[304.247,712.554],[302.02,716.196],[278.826,702.162],[275.987,706.813],[265.202,700.299],[261.178,697.864]]],"type":"Polygon"},"id":"osm_way_225255194","properties":{"asset_id":"osm_way_225255194","base_z_m":0.0,"building_id":"building:map:osm_way_225255194","geometry_role":"mapped_building_outline","geometry_status":"derived_footprint","height_m":19.2,"height_source":"osm:building:levels × assumed storey","levels":6.0,"measured_height":false,"min_height_m":0.0,"name":"43","search_building_id":null,"source_url":"https://www.openstreetmap.org/way/225255194"},"type":"Feature"},{"geometry":{"coordinates":[[[276.142,672.856],[281.712,663.817],[286.353,666.617],[289.602,668.572],[292.16,664.37],[319.305,680.727],[316.455,685.412],[319.275,687.115],[316.65,691.426],[293.688,677.584],[291.082,681.874],[285.15,678.463],[277.744,690.419],[275.42,694.226],[266.568,688.855],[276.142,672.856]]],"type":"Polygon"},"id":"osm_way_225255196","properties":{"asset_id":"osm_way_225255196","base_z_m":0.0,"building_id":"building:map:osm_way_225255196","geometry_role":"mapped_building_outline","geometry_status":"derived_footprint","height_m":19.2,"height_source":"osm:building:levels × assumed storey","levels":6.0,"measured_height":false,"min_height_m":0.0,"name":"41","search_building_id":null,"source_url":"https://www.openstreetmap.org/way/225255196"},"type":"Feature"},{"geometry":{"coordinates":[[[295.542,651.554],[301.162,642.339],[310.433,647.995],[312.999,643.859],[339.943,660.401],[346.916,664.685],[374.27,681.478],[372.278,684.703],[380.447,689.718],[374.557,699.229],[359.778,690.147],[361.877,686.768],[313.135,656.849],[310.773,660.666],[295.542,651.554]]],"type":"Polygon"},"id":"osm_way_225255198","properties":{"asset_id":"osm_way_225255198","base_z_m":0.0,"building_id":"building:map:osm_way_225255198","geometry_role":"mapped_building_outline","geometry_status":"derived_footprint","height_m":19.2,"height_source":"osm:building:levels × assumed storey","levels":6.0,"measured_height":false,"min_height_m":0.0,"name":"40","search_building_id":null,"source_url":"https://www.openstreetmap.org/way/225255198"},"type":"Feature"},{"geometry":{"coordinates":[[[310.872,722.078],[313.166,718.392],[316.536,720.471],[318.946,716.588],[344.945,732.614],[342.905,735.86],[347.516,738.727],[352.147,741.538],[346.928,749.929],[344.791,748.604],[332.141,740.814],[334.668,736.744],[310.872,722.078]]],"type":"Polygon"},"id":"osm_way_225255200","properties":{"asset_id":"osm_way_225255200","base_z_m":0.0,"building_id":"building:map:osm_way_225255200","geometry_role":"mapped_building_outline","geometry_status":"derived_footprint","height_m":19.2,"height_source":"osm:building:levels × assumed storey","levels":6.0,"measured_height":false,"min_height_m":0.0,"name":"44","search_building_id":null,"source_url":"https://www.openstreetmap.org/way/225255200"},"type":"Feature"},{"geometry":{"coordinates":[[[326.495,697.692],[328.992,693.721],[331.559,695.309],[334.474,690.659],[361.264,707.32],[359.049,710.84],[365.555,714.894],[368.402,716.664],[362.757,725.657],[357.362,722.3],[353.272,728.815],[357.491,731.441],[354.43,736.322],[350.538,733.901],[347.516,738.727],[342.905,735.86],[344.945,732.614],[352.98,719.826],[348.807,717.223],[351.362,713.154],[326.495,697.692]]],"type":"Polygon"},"id":"osm_way_225255202","properties":{"asset_id":"osm_way_225255202","base_z_m":0.0,"building_id":"building:map:osm_way_225255202","geometry_role":"mapped_building_outline","geometry_status":"derived_footprint","height_m":19.2,"height_source":"osm:building:levels × assumed storey","levels":6.0,"measured_height":false,"min_height_m":0.0,"name":"42","search_building_id":null,"source_url":"https://www.openstreetmap.org/way/225255202"},"type":"Feature"},{"geometry":{"coordinates":[[[-473.82,433.099],[-467.643,422.828],[-417.696,452.588],[-423.882,462.858],[-443.663,451.071],[-473.82,433.099]]],"type":"Polygon"},"id":"osm_way_225265324","properties":{"asset_id":"osm_way_225265324","base_z_m":0.0,"building_id":"building:map:osm_way_225265324","geometry_role":"mapped_building_outline","geometry_status":"derived_footprint","height_m":19.2,"height_source":"inferred building typology","levels":6.0,"measured_height":false,"min_height_m":0.0,"name":"","search_building_id":null,"source_url":"https://www.openstreetmap.org/way/225265324"},"type":"Feature"},{"geometry":{"coordinates":[[[-455.24,402.676],[-448.762,391.889],[-399.962,420.896],[-406.44,431.694],[-455.24,402.676]]],"type":"Polygon"},"id":"osm_way_225265327","properties":{"asset_id":"osm_way_225265327","base_z_m":0.0,"building_id":"building:map:osm_way_225265327","geometry_role":"mapped_building_outline","geometry_status":"derived_footprint","height_m":19.2,"height_source":"inferred building typology","levels":6.0,"measured_height":false,"min_height_m":0.0,"name":"","search_building_id":null,"source_url":"https://www.openstreetmap.org/way/225265327"},"type":"Feature"},{"geometry":{"coordinates":[[[-393.517,438.468],[-387.452,428.106],[-349.094,450.384],[-355.159,460.734],[-393.517,438.468]]],"type":"Polygon"},"id":"osm_way_225265329","properties":{"asset_id":"osm_way_225265329","base_z_m":0.0,"building_id":"building:map:osm_way_225265329","geometry_role":"mapped_building_outline","geometry_status":"derived_footprint","height_m":19.2,"height_source":"inferred building typology","levels":6.0,"measured_height":false,"min_height_m":0.0,"name":"","search_building_id":null,"source_url":"https://www.openstreetmap.org/way/225265329"},"type":"Feature"},{"geometry":{"coordinates":[[[-342.97,467.406],[-336.895,457.555],[-297.503,481.615],[-303.578,491.466],[-342.97,467.406]]],"type":"Polygon"},"id":"osm_way_225265332","properties":{"asset_id":"osm_way_225265332","base_z_m":0.0,"building_id":"building:map:osm_way_225265332","geometry_role":"mapped_building_outline","geometry_status":"derived_footprint","height_m":19.2,"height_source":"inferred building typology","levels":6.0,"measured_height":false,"min_height_m":0.0,"name":"","search_building_id":null,"source_url":"https://www.openstreetmap.org/way/225265332"},"type":"Feature"},{"geometry":{"coordinates":[[[-361.59,500.091],[-355.185,489.692],[-316.651,513.182],[-323.057,523.592],[-361.59,500.091]]],"type":"Polygon"},"id":"osm_way_225265335","properties":{"asset_id":"osm_way_225265335","base_z_m":0.0,"building_id":"building:map:osm_way_225265335","geometry_role":"mapped_building_outline","geometry_status":"derived_footprint","height_m":19.2,"height_source":"inferred building typology","levels":6.0,"measured_height":false,"min_height_m":0.0,"name":"","search_building_id":null,"source_url":"https://www.openstreetmap.org/way/225265335"},"type":"Feature"},{"geometry":{"coordinates":[[[-412.247,468.855],[-406.367,459.333],[-368.049,482.786],[-373.929,492.307],[-412.247,468.855]]],"type":"Polygon"},"id":"osm_way_225265337","properties":{"asset_id":"osm_way_225265337","base_z_m":0.0,"building_id":"building:map:osm_way_225265337","geometry_role":"mapped_building_outline","geometry_status":"derived_footprint","height_m":19.2,"height_source":"inferred building typology","levels":6.0,"measured_height":false,"min_height_m":0.0,"name":"青教公寓","search_building_id":null,"source_url":"https://www.openstreetmap.org/way/225265337"},"type":"Feature"},{"geometry":{"coordinates":[[[-489.444,483.583],[-483.206,473.069],[-448.944,493.199],[-455.172,503.713],[-489.444,483.583]]],"type":"Polygon"},"id":"osm_way_225265339","properties":{"asset_id":"osm_way_225265339","base_z_m":0.0,"building_id":"building:map:osm_way_225265339","geometry_role":"mapped_building_outline","geometry_status":"derived_footprint","height_m":19.2,"height_source":"inferred building typology","levels":6.0,"measured_height":false,"min_height_m":0.0,"name":"","search_building_id":null,"source_url":"https://www.openstreetmap.org/way/225265339"},"type":"Feature"},{"geometry":{"coordinates":[[[-423.707,522.418],[-417.467,512.293],[-383.518,533.006],[-389.758,543.131],[-423.707,522.418]]],"type":"Polygon"},"id":"osm_way_225265342","properties":{"asset_id":"osm_way_225265342","base_z_m":0.0,"building_id":"building:map:osm_way_225265342","geometry_role":"mapped_building_outline","geometry_status":"derived_footprint","height_m":19.2,"height_source":"inferred building typology","levels":6.0,"measured_height":false,"min_height_m":0.0,"name":"","search_building_id":null,"source_url":"https://www.openstreetmap.org/way/225265342"},"type":"Feature"},{"geometry":{"coordinates":[[[-382.547,547.386],[-376.082,536.798],[-340.225,558.499],[-346.691,569.086],[-382.547,547.386]]],"type":"Polygon"},"id":"osm_way_225265344","properties":{"asset_id":"osm_way_225265344","base_z_m":0.0,"building_id":"building:map:osm_way_225265344","geometry_role":"mapped_building_outline","geometry_status":"derived_footprint","height_m":19.2,"height_source":"inferred building typology","levels":6.0,"measured_height":false,"min_height_m":0.0,"name":"","search_building_id":null,"source_url":"https://www.openstreetmap.org/way/225265344"},"type":"Feature"},{"geometry":{"coordinates":[[[-412.599,569.552],[-406.275,558.996],[-358.147,587.525],[-364.461,598.082],[-412.599,569.552]]],"type":"Polygon"},"id":"osm_way_225265346","properties":{"asset_id":"osm_way_225265346","base_z_m":0.0,"building_id":"building:map:osm_way_225265346","geometry_role":"mapped_building_outline","geometry_status":"derived_footprint","height_m":19.2,"height_source":"inferred building typology","levels":6.0,"measured_height":false,"min_height_m":0.0,"name":"","search_building_id":null,"source_url":"https://www.openstreetmap.org/way/225265346"},"type":"Feature"},{"geometry":{"coordinates":[[[-466.137,537.444],[-459.746,526.767],[-413.103,554.46],[-419.504,565.137],[-466.137,537.444]]],"type":"Polygon"},"id":"osm_way_225265348","properties":{"asset_id":"osm_way_225265348","base_z_m":0.0,"building_id":"building:map:osm_way_225265348","geometry_role":"mapped_building_outline","geometry_status":"derived_footprint","height_m":19.2,"height_source":"inferred building typology","levels":6.0,"measured_height":false,"min_height_m":0.0,"name":"","search_building_id":null,"source_url":"https://www.openstreetmap.org/way/225265348"},"type":"Feature"},{"geometry":{"coordinates":[[[-507.793,512.757],[-501.467,502.034],[-467.548,521.825],[-473.875,532.559],[-507.793,512.757]]],"type":"Polygon"},"id":"osm_way_225265351","properties":{"asset_id":"osm_way_225265351","base_z_m":0.0,"building_id":"building:map:osm_way_225265351","geometry_role":"mapped_building_outline","geometry_status":"derived_footprint","height_m":19.2,"height_source":"inferred building typology","levels":6.0,"measured_height":false,"min_height_m":0.0,"name":"","search_building_id":null,"source_url":"https://www.openstreetmap.org/way/225265351"},"type":"Feature"},{"geometry":{"coordinates":[[[-462.062,477.228],[-457.93,470.425],[-440.364,480.997],[-444.497,487.8],[-462.062,477.228]]],"type":"Polygon"},"id":"osm_way_225267146","properties":{"asset_id":"osm_way_225267146","base_z_m":0.0,"building_id":"building:map:osm_way_225267146","geometry_role":"mapped_building_outline","geometry_status":"derived_footprint","height_m":19.2,"height_source":"inferred building typology","levels":6.0,"measured_height":false,"min_height_m":0.0,"name":"","search_building_id":null,"source_url":"https://www.openstreetmap.org/way/225267146"},"type":"Feature"},{"geometry":{"coordinates":[[[84.986,164.919],[86.72,161.367],[90.173,163.037],[88.439,166.589],[84.986,164.919]]],"type":"Polygon"},"id":"osm_way_962566084","properties":{"asset_id":"osm_way_962566084","base_z_m":0.0,"building_id":"building:map:osm_way_962566084","geometry_role":"mapped_building_outline","geometry_status":"derived_footprint","height_m":4.0,"height_source":"inferred building typology","levels":1.0,"measured_height":false,"min_height_m":0.0,"name":"","search_building_id":null,"source_url":"https://www.openstreetmap.org/way/962566084"},"type":"Feature"}],"name":"buildings","origin_easting_northing":[681614.1962973196,3554804.986814983],"source_crs":"EPSG:32650","type":"FeatureCollection"}
